postcode,local_authority,country,latitude,longitude
AB10,Aberdeen City,Scotland,57.134814,-2.117460
AB10_AB99,Aberdeen City,Scotland,57.134735,-2.117381
AB11,Aberdeen City,Scotland,57.137138,-2.093457
AB12,Aberdeen City,Scotland,57.103388,-2.109898
AB13_AB14,Aberdeen City,Scotland,57.106946,-2.261092
AB15,Aberdeen City,Scotland,57.138578,-2.166850
AB16,Aberdeen City,Scotland,57.159561,-2.156527
AB21,Aberdeen City,Scotland,57.208136,-2.200757
AB22,Aberdeen City,Scotland,57.186448,-2.119629
AB23,Aberdeen City,Scotland,57.208331,-2.089806
AB24,Aberdeen City,Scotland,57.163399,-2.108256
AB25,Aberdeen City,Scotland,57.153483,-2.114231
AB30,Aberdeenshire,Scotland,56.845894,-2.476895
AB31,Aberdeenshire,Scotland,57.066944,-2.504985
AB32,Aberdeenshire,Scotland,57.154550,-2.314956
AB33_AB35_AB36,Aberdeenshire,Scotland,57.156722,-2.914247
AB34,Aberdeenshire,Scotland,57.092737,-2.810034
AB37_AB38_IV32,Moray,Scotland,57.511806,-3.207984
AB39,Aberdeenshire,Scotland,56.978044,-2.217097
AB41,Aberdeenshire,Scotland,57.371702,-2.116731
AB42,Aberdeenshire,Scotland,57.501580,-1.888169
AB43,Aberdeenshire,Scotland,57.657777,-2.044860
AB44_AB45,Aberdeenshire,Scotland,57.655047,-2.553410
AB51,Aberdeenshire,Scotland,57.287912,-2.404800
AB52,Aberdeenshire,Scotland,57.342088,-2.602614
AB53,Aberdeenshire,Scotland,57.534374,-2.407192
AB54,Aberdeenshire,Scotland,57.465691,-2.755991
AB55,Moray,Scotland,57.532427,-2.975614
AB56,Moray,Scotland,57.673519,-2.919141
AL1,St Albans,England,51.748662,-0.319472
AL10,Welwyn Hatfield,England,51.760952,-0.231262
AL2,St Albans,England,51.722320,-0.331054
AL3,St Albans,England,51.775416,-0.366610
AL4,St Albans,England,51.771274,-0.296002
AL5,St Albans,England,51.814562,-0.351518
AL6,Welwyn Hatfield,England,51.829923,-0.199450
AL7,Welwyn Hatfield,England,51.798630,-0.189295
AL8,Welwyn Hatfield,England,51.803431,-0.210299
AL9,Welwyn Hatfield,England,51.746868,-0.201696
B1,Birmingham,England,52.479571,-1.907793
B10,Birmingham,England,52.470107,-1.853289
B11,Birmingham,England,52.455383,-1.859837
B12,Birmingham,England,52.460887,-1.882533
B13,Birmingham,England,52.435102,-1.882565
B14,Birmingham,England,52.418789,-1.890259
B15,Birmingham,England,52.467944,-1.923494
B16,Birmingham,England,52.475451,-1.932313
B17,Birmingham,England,52.461489,-1.962927
B18,Birmingham,England,52.491540,-1.922568
B19,Birmingham,England,52.496309,-1.906164
B20,Birmingham,England,52.513387,-1.918844
B21,Birmingham,England,52.505126,-1.936336
B23,Birmingham,England,52.527650,-1.851730
B24,Birmingham,England,52.519636,-1.828912
B25,Birmingham,England,52.461654,-1.825970
B26,Birmingham,England,52.460734,-1.792881
B27,Birmingham,England,52.445770,-1.823770
B28,Birmingham,England,52.427799,-1.843175
B29,Birmingham,England,52.437720,-1.945658
B2_B3_B4,Birmingham,England,52.484358,-1.898427
B2_B3_B4_B99,Birmingham,England,52.484686,-1.898309
B30,Birmingham,England,52.421173,-1.928092
B31,Birmingham,England,52.409139,-1.973104
B32,Birmingham,England,52.450899,-1.994499
B33,Birmingham,England,52.480726,-1.787952
B34,Birmingham,England,52.495674,-1.781685
B35,Birmingham,England,52.517256,-1.789982
B36,Solihull,England,52.504536,-1.779989
B37,Solihull,Other,52.478398,-1.741819
B37_B40,Solihull,England,52.477855,-1.741355
B38,Birmingham,England,52.401044,-1.934002
B40_B92,Solihull,Other,52.435964,-1.772922
B42,Birmingham,England,52.534676,-1.904758
B43,Sandwell,England,52.547605,-1.928244
B44,Birmingham,England,52.544992,-1.885656
B45,Birmingham,England,52.388486,-2.008454
B46,North Warwickshire,England,52.507108,-1.697609
B47,Bromsgrove,England,52.388697,-1.881177
B48,Bromsgrove,England,52.356886,-1.951645
B49,Stratford-on-Avon,England,52.217183,-1.867680
B5,Birmingham,England,52.472193,-1.896817
B50,Stratford-on-Avon,England,52.169634,-1.856637
B6,Birmingham,England,52.502504,-1.886852
B60,Bromsgrove,England,52.323783,-2.050252
B61,Bromsgrove,England,52.344055,-2.067473
B62,Dudley,England,52.459910,-2.037192
B63,Dudley,England,52.453071,-2.067369
B64,Sandwell,England,52.472434,-2.069069
B65,Sandwell,England,52.482825,-2.043446
B66,Sandwell,England,52.493644,-1.965878
B67,Sandwell,England,52.487670,-1.977314
B68,Sandwell,England,52.480059,-2.001830
B69,Sandwell,England,52.502812,-2.025503
B7,Birmingham,England,52.493823,-1.874405
B70,Sandwell,England,52.519789,-2.002674
B71,Sandwell,England,52.534791,-1.990099
B72,Birmingham,England,52.554483,-1.823635
B73,Birmingham,England,52.559272,-1.837672
B74,Birmingham,England,52.582351,-1.857296
B75,Birmingham,England,52.577843,-1.811222
B76,Birmingham,England,52.544725,-1.789898
B77,Tamworth,England,52.620252,-1.671725
B78,North Warwickshire,England,52.606584,-1.675044
B79,Tamworth,England,52.648119,-1.682583
B8,Birmingham,England,52.490021,-1.842774
B80,Stratford-on-Avon,England,52.279042,-1.897274
B9,Birmingham,England,52.478085,-1.852839
B90,Solihull,England,52.401299,-1.826133
B91,Solihull,England,52.413987,-1.780706
B92,Solihull,England,52.435309,-1.774300
B93,Solihull,England,52.383111,-1.742138
B94,Stratford-on-Avon,England,52.352985,-1.791010
B95,Stratford-on-Avon,England,52.287070,-1.780540
B96,Redditch,England,52.254862,-1.959544
B97,Redditch,England,52.303236,-1.949753
B98,Redditch,England,52.303712,-1.916079
BA1,Bath and North East Somerset,England,51.388807,-2.360199
BA10_BA7,South Somerset,England,51.100095,-2.485284
BA11,Mendip,England,51.237627,-2.326367
BA12,Wiltshire,England,51.174274,-2.187438
BA13,Wiltshire,England,51.263027,-2.184855
BA14,Wiltshire,England,51.319032,-2.202835
BA15,Wiltshire,England,51.348387,-2.262242
BA16,Mendip,England,51.126547,-2.743236
BA2,Bath and North East Somerset,England,51.362021,-2.376248
BA20,South Somerset,England,50.939032,-2.642694
BA21,South Somerset,England,50.951152,-2.633828
BA22,South Somerset,England,50.968570,-2.637243
BA3,Bath and North East Somerset,England,51.285590,-2.449286
BA4,Mendip,England,51.174619,-2.533157
BA5,Mendip,England,51.211635,-2.654805
BA6,Mendip,England,51.143100,-2.709375
BA8_BA9,South Somerset,England,51.038324,-2.410298
BB1,Blackburn with Darwen,England,53.755182,-2.465756
BB10,Burnley,England,53.799427,-2.221693
BB11,Burnley,England,53.784778,-2.250779
BB12,Burnley,England,53.802031,-2.288949
BB18,Pendle,England,53.915036,-2.172528
BB18_BB94,Pendle,England,53.915049,-2.171529
BB2,Blackburn with Darwen,England,53.741848,-2.498016
BB3,Blackburn with Darwen,England,53.697783,-2.466231
BB4,Rossendale,England,53.703413,-2.291152
BB5,Hyndburn,England,53.754548,-2.372258
BB6,Hyndburn,England,53.803932,-2.415656
BB7,Ribble Valley,England,53.871801,-2.389237
BB8,Pendle,England,53.879240,-2.168067
BB9,Pendle,England,53.837021,-2.215819
BD1,Bradford,England,53.797288,-1.754315
BD10,Bradford,England,53.830871,-1.726191
BD11,Leeds,England,53.749833,-1.679243
BD12,Bradford,England,53.747898,-1.762439
BD13,Bradford,England,53.787585,-1.856047
BD14,Bradford,England,53.783277,-1.817496
BD15,Bradford,England,53.808022,-1.835131
BD16,Bradford,Other,53.847561,-1.832255
BD16_BD97,Bradford,England,53.847489,-1.832133
BD17,Bradford,Other,53.844996,-1.769070
BD17_BD98,Bradford,England,53.844795,-1.769044
BD18,Bradford,England,53.830220,-1.776497
BD19,Kirklees,England,53.726649,-1.714377
BD1_BD97_BD98_BD99,Bradford,Other,53.797403,-1.754517
BD2,Bradford,England,53.814147,-1.736274
BD20,Bradford,England,53.895787,-1.946473
BD21,Bradford,England,53.864602,-1.908341
BD22,Bradford,England,53.846927,-1.952341
BD23,Craven,England,53.988736,-2.052211
BD24,Craven,England,54.077200,-2.281531
BD3,Bradford,England,53.797929,-1.729956
BD4,Bradford,England,53.776771,-1.721651
BD5,Bradford,England,53.779322,-1.758344
BD6,Bradford,England,53.764941,-1.784776
BD7,Bradford,Other,53.784216,-1.780989
BD7_BD99,Bradford,England,53.784430,-1.780532
BD8,Bradford,England,53.801423,-1.780640
BD9,Bradford,England,53.811503,-1.788118
BH1,"Bournemouth, Christchurch and Poole",England,50.725281,-1.863081
BH10,"Bournemouth, Christchurch and Poole",England,50.759081,-1.893259
BH11,"Bournemouth, Christchurch and Poole",England,50.760866,-1.920075
BH12,"Bournemouth, Christchurch and Poole",England,50.737958,-1.924849
BH13,"Bournemouth, Christchurch and Poole",England,50.710432,-1.918312
BH14,"Bournemouth, Christchurch and Poole",England,50.722247,-1.945520
BH15,"Bournemouth, Christchurch and Poole",England,50.720846,-1.984902
BH16,Dorset,England,50.738164,-2.044452
BH17,"Bournemouth, Christchurch and Poole",England,50.745817,-1.973258
BH18,"Bournemouth, Christchurch and Poole",England,50.757050,-1.991531
BH19,Dorset,England,50.611397,-1.969992
BH2,"Bournemouth, Christchurch and Poole",England,50.721897,-1.881276
BH20,Dorset,England,50.687513,-2.144728
BH21,Dorset,England,50.818261,-1.964535
BH22,Dorset,England,50.806148,-1.889117
BH23,"Bournemouth, Christchurch and Poole",England,50.745372,-1.758550
BH24,New Forest,England,50.845921,-1.788235
BH25,New Forest,England,50.752291,-1.658630
BH3,"Bournemouth, Christchurch and Poole",England,50.735517,-1.880237
BH31,Dorset,England,50.874838,-1.869166
BH4,"Bournemouth, Christchurch and Poole",England,50.721711,-1.900528
BH5,"Bournemouth, Christchurch and Poole",England,50.725760,-1.837068
BH6,"Bournemouth, Christchurch and Poole",England,50.727675,-1.809195
BH7,"Bournemouth, Christchurch and Poole",England,50.734535,-1.834178
BH8,"Bournemouth, Christchurch and Poole",England,50.739773,-1.853945
BH9,"Bournemouth, Christchurch and Poole",England,50.749827,-1.874817
BL0,Bury,England,53.643398,-2.316206
BL1,Bolton,England,53.588913,-2.440660
BL11_BL2,Bolton,Other,53.587395,-2.398431
BL11_BL3,Bolton,England,53.566258,-2.431866
BL2,Bolton,England,53.587720,-2.397854
BL3,Bolton,Other,53.566155,-2.431978
BL4,Bolton,England,53.547366,-2.403504
BL4_BL78,Bolton,England,53.547552,-2.403571
BL5,Bolton,England,53.551649,-2.517184
BL6,Bolton,England,53.591130,-2.540162
BL7,Bolton,England,53.628161,-2.423013
BL8,Bury,England,53.601854,-2.323599
BL9,Bury,England,53.592022,-2.288861
BN1,Brighton and Hove,England,50.837195,-0.140102
BN10,Lewes,England,50.795594,0.001828
BN11,Worthing,England,50.813740,-0.375476
BN12_BN99,Worthing,England,50.816770,-0.402461
BN13,Worthing,England,50.830342,-0.406417
BN14,Worthing,England,50.830767,-0.379930
BN15_BN95,Adur,England,50.830006,-0.325118
BN16,Arun,England,50.815504,-0.498019
BN17,Arun,England,50.815280,-0.537127
BN18,Arun,England,50.848585,-0.578374
BN1_BN50_BN88,Brighton and Hove,England,50.835045,-0.140231
BN20,Eastbourne,England,50.774032,0.254855
BN21,Eastbourne,England,50.772095,0.274635
BN22,Eastbourne,England,50.787886,0.283457
BN23,Eastbourne,England,50.798480,0.312718
BN24,Wealden,England,50.815581,0.325717
BN25,Lewes,England,50.775950,0.107285
BN26,Wealden,England,50.821449,0.225039
BN27,Wealden,England,50.870810,0.262830
BN2_BN51,Brighton and Hove,England,50.823865,-0.106374
BN2_BN88,Brighton and Hove,England,50.824531,-0.108381
BN3,Brighton and Hove,England,50.834453,-0.175375
BN3_BN52,Brighton and Hove,England,50.834374,-0.174393
BN41,Brighton and Hove,England,50.839103,-0.215313
BN42,Adur,England,50.836747,-0.232049
BN43,Adur,England,50.835423,-0.268216
BN44,Horsham,England,50.892747,-0.318649
BN45_BN6,Mid Sussex,England,50.926931,-0.155039
BN5,Horsham,England,50.924312,-0.268099
BN7,Lewes,England,50.878323,0.002918
BN8,Lewes,England,50.912427,0.050565
BN9,Lewes,England,50.795289,0.026855
BR1,Bromley,England,51.410733,0.019428
BR2,Bromley,England,51.390379,0.021642
BR3,Bromley,England,51.403411,-0.031736
BR4,Bromley,England,51.375566,-0.009891
BR5,Bromley,England,51.389195,0.102525
BR6,Bromley,England,51.367411,0.092520
BR7,Bromley,England,51.411787,0.059159
BR8,Sevenoaks,England,51.397627,0.174824
BS1,"Bristol, City of",England,51.453893,-2.592042
BS10,"Bristol, City of",England,51.505652,-2.611734
BS11,"Bristol, City of",England,51.498719,-2.678502
BS13,"Bristol, City of",England,51.412082,-2.611773
BS14,"Bristol, City of",England,51.413133,-2.563142
BS15,South Gloucestershire,England,51.454803,-2.496170
BS16,South Gloucestershire,England,51.485531,-2.512253
BS2,"Bristol, City of",England,51.459012,-2.581152
BS20,North Somerset,England,51.480608,-2.757012
BS21,North Somerset,England,51.436168,-2.851379
BS22,North Somerset,England,51.360634,-2.928253
BS23,North Somerset,England,51.343508,-2.969516
BS24,North Somerset,England,51.331282,-2.924834
BS25_BS29,North Somerset,England,51.323414,-2.839979
BS26_BS28,Sedgemoor,England,51.257095,-2.835067
BS27,Sedgemoor,England,51.272417,-2.772307
BS2_BS98_BS99,"Bristol, City of",England,51.458164,-2.577240
BS3,"Bristol, City of",England,51.438576,-2.603428
BS30,South Gloucestershire,England,51.446417,-2.475493
BS31,Bath and North East Somerset,England,51.409594,-2.493464
BS32,South Gloucestershire,England,51.541462,-2.561098
BS34,South Gloucestershire,England,51.525270,-2.567794
BS35,South Gloucestershire,England,51.597342,-2.548188
BS36,South Gloucestershire,England,51.526177,-2.487908
BS37,South Gloucestershire,England,51.540169,-2.418340
BS39,Bath and North East Somerset,England,51.328093,-2.532842
BS4,"Bristol, City of",England,51.436242,-2.563950
BS40,North Somerset,England,51.346817,-2.693597
BS41,North Somerset,England,51.423511,-2.654455
BS48,North Somerset,England,51.426526,-2.749686
BS49,North Somerset,England,51.382418,-2.816036
BS5,"Bristol, City of",England,51.462166,-2.552834
BS6,"Bristol, City of",England,51.470163,-2.598400
BS7,"Bristol, City of",England,51.486663,-2.581603
BS8,"Bristol, City of",England,51.457480,-2.619444
BS9,"Bristol, City of",England,51.488327,-2.625351
BT10,Belfast,Northern Ireland,54.559778,-5.986498
BT11,Belfast,Northern Ireland,54.576243,-5.998135
BT12,Belfast,Other,54.592446,-5.956303
BT12_BT2,Belfast,Northern Ireland,54.592711,-5.949527
BT13,Belfast,Northern Ireland,54.605777,-5.958499
BT14,Belfast,Northern Ireland,54.621096,-5.962356
BT15,Belfast,Northern Ireland,54.621892,-5.931663
BT16,Lisburn and Castlereagh,Northern Ireland,54.590897,-5.798057
BT17,Belfast,Northern Ireland,54.553175,-6.019549
BT18,Ards and North Down,Northern Ireland,54.640353,-5.823878
BT19,Ards and North Down,Northern Ireland,54.650749,-5.657868
BT1_BT2_BT3_BT7,Belfast,Other,54.595372,-5.926195
BT1_BT3_BT7,Belfast,Northern Ireland,54.595715,-5.925390
BT20,Ards and North Down,Northern Ireland,54.659011,-5.665563
BT21,Ards and North Down,Northern Ireland,54.640753,-5.547026
BT22,Ards and North Down,Northern Ireland,54.503441,-5.515175
BT23,Ards and North Down,Northern Ireland,54.571640,-5.707761
BT24,"Newry, Mourne and Down",Northern Ireland,54.417842,-5.871645
BT25,"Armagh City, Banbridge and Craigavon",Northern Ireland,54.396523,-6.115798
BT26,Lisburn and Castlereagh,Northern Ireland,54.454167,-6.063942
BT27,Lisburn and Castlereagh,Northern Ireland,54.509035,-6.024632
BT28,Lisburn and Castlereagh,Northern Ireland,54.521933,-6.084434
BT29,Antrim and Newtownabbey,Northern Ireland,54.621391,-6.197521
BT30,"Newry, Mourne and Down",Northern Ireland,54.333499,-5.703375
BT31,"Newry, Mourne and Down",Northern Ireland,54.276529,-5.968428
BT32,"Armagh City, Banbridge and Craigavon",Northern Ireland,54.336242,-6.247335
BT33,"Newry, Mourne and Down",Northern Ireland,54.223343,-5.890744
BT34,"Newry, Mourne and Down",Northern Ireland,54.153127,-6.181605
BT35,"Newry, Mourne and Down",Northern Ireland,54.164895,-6.439656
BT36,Antrim and Newtownabbey,Northern Ireland,54.678247,-5.959661
BT37,Antrim and Newtownabbey,Northern Ireland,54.676397,-5.908278
BT38,Mid and East Antrim,Northern Ireland,54.728734,-5.801127
BT39,Antrim and Newtownabbey,Northern Ireland,54.745197,-6.018105
BT4,Belfast,Northern Ireland,54.602727,-5.868166
BT40,Mid and East Antrim,Northern Ireland,54.846646,-5.822876
BT41,Antrim and Newtownabbey,Northern Ireland,54.731317,-6.253812
BT42,Mid and East Antrim,Northern Ireland,54.854757,-6.276737
BT43,Mid and East Antrim,Northern Ireland,54.890684,-6.265732
BT44,Mid and East Antrim,Northern Ireland,54.972870,-6.284191
BT45,Mid Ulster,Northern Ireland,54.759776,-6.638933
BT46,Mid Ulster,Northern Ireland,54.865550,-6.662934
BT47,Derry City and Strabane,Northern Ireland,54.980595,-7.231056
BT48,Derry City and Strabane,Northern Ireland,55.009080,-7.327276
BT49,Causeway Coast and Glens,Northern Ireland,55.047539,-6.951742
BT5,Belfast,Northern Ireland,54.588623,-5.873864
BT51,Causeway Coast and Glens,Northern Ireland,55.061260,-6.683330
BT52,Causeway Coast and Glens,Northern Ireland,55.133624,-6.655913
BT53,Causeway Coast and Glens,Northern Ireland,55.085069,-6.477025
BT54,Causeway Coast and Glens,Other,55.204659,-6.256240
BT54_BT57,Causeway Coast and Glens,Northern Ireland,55.204121,-6.362160
BT55,Causeway Coast and Glens,Northern Ireland,55.179674,-6.709666
BT56,Causeway Coast and Glens,Northern Ireland,55.197411,-6.650624
BT56_BT57,Causeway Coast and Glens,Other,55.199897,-6.595215
BT6,Belfast,Northern Ireland,54.580812,-5.898378
BT60,"Armagh City, Banbridge and Craigavon",Northern Ireland,54.292701,-6.647718
BT61,"Armagh City, Banbridge and Craigavon",Northern Ireland,54.366855,-6.626184
BT62,"Armagh City, Banbridge and Craigavon",Northern Ireland,54.412825,-6.464686
BT63,"Armagh City, Banbridge and Craigavon",Northern Ireland,54.408102,-6.392424
BT64_BT65,"Armagh City, Banbridge and Craigavon",Northern Ireland,54.446737,-6.376852
BT66,"Armagh City, Banbridge and Craigavon",Northern Ireland,54.455341,-6.333379
BT67,"Armagh City, Banbridge and Craigavon",Northern Ireland,54.486843,-6.268282
BT68_BT69_BT76_BT77,Mid Ulster,Northern Ireland,54.411786,-7.031574
BT70,Mid Ulster,Northern Ireland,54.514456,-6.881655
BT71,Mid Ulster,Northern Ireland,54.512636,-6.705751
BT74,Fermanagh and Omagh,Northern Ireland,54.344702,-7.663433
BT75_BT94,Fermanagh and Omagh,Northern Ireland,54.376080,-7.508228
BT78,Fermanagh and Omagh,Northern Ireland,54.572642,-7.372191
BT79,Fermanagh and Omagh,Northern Ireland,54.622174,-7.204826
BT8,Lisburn and Castlereagh,Northern Ireland,54.545330,-5.908319
BT80,Mid Ulster,Northern Ireland,54.645828,-6.743682
BT81,Derry City and Strabane,Northern Ireland,54.695950,-7.612247
BT82,Derry City and Strabane,Northern Ireland,54.826262,-7.431335
BT9,Belfast,Northern Ireland,54.572190,-5.950181
BT92,Fermanagh and Omagh,Northern Ireland,54.223723,-7.464946
BT93,Fermanagh and Omagh,Northern Ireland,54.467633,-7.826245
CA1,Carlisle,England,54.887138,-2.918289
CA10,Eden,Other,54.614250,-2.662316
CA10_CA9,Eden,England,54.653834,-2.610537
CA11,Eden,England,54.664817,-2.782180
CA12,Allerdale,England,54.602302,-3.134343
CA13,Allerdale,England,54.660433,-3.368023
CA14,Allerdale,England,54.635172,-3.539530
CA14_CA95,Allerdale,England,54.635208,-3.539632
CA15,Allerdale,England,54.711837,-3.481985
CA16_CA17,Eden,England,54.530685,-2.423109
CA16_CA17_CA9,Eden,Other,54.603317,-2.421628
CA18_CA19_CA20_CA21_LA19,Copeland,England,54.383974,-3.434606
CA2,Carlisle,England,54.884774,-2.950652
CA22_CA27,Copeland,England,54.482185,-3.542752
CA23_CA24_CA26,Copeland,England,54.529427,-3.498519
CA25,Copeland,England,54.522047,-3.519585
CA28,Copeland,England,54.543650,-3.579613
CA3,Carlisle,England,54.905908,-2.939978
CA4,Carlisle,England,54.856708,-2.820737
CA5,Carlisle,England,54.820752,-3.210939
CA6,Carlisle,England,54.986976,-2.868530
CA7,Allerdale,England,54.808549,-3.235230
CA8,Carlisle,England,54.939704,-2.688139
CB1,Cambridge,England,52.185854,0.167350
CB10,Uttlesford,England,52.029332,0.258128
CB11,Uttlesford,England,52.001877,0.213910
CB2,Cambridge,England,52.171884,0.129586
CB21,South Cambridgeshire,England,52.130497,0.279417
CB22,South Cambridgeshire,England,52.133263,0.135967
CB23,South Cambridgeshire,England,52.216762,-0.022836
CB24,South Cambridgeshire,England,52.275454,0.084226
CB25,East Cambridgeshire,England,52.256881,0.245840
CB3,Cambridge,England,52.214071,0.033456
CB4,Cambridge,England,52.243722,0.117619
CB5,Cambridge,England,52.233651,0.199544
CB6,East Cambridgeshire,England,52.403379,0.224630
CB7,East Cambridgeshire,England,52.369896,0.311986
CB8,West Suffolk,England,52.232978,0.420957
CB9,West Suffolk,England,52.083008,0.439954
CF10_CF91_CF95_CF99,Cardiff,Wales,51.473533,-3.177490
CF10_CF99,Cardiff,Wales,51.473623,-3.177248
CF11,Cardiff,Wales,51.470671,-3.192643
CF14,Cardiff,Wales,51.520243,-3.202440
CF15,Cardiff,Wales,51.533869,-3.271069
CF23,Cardiff,Wales,51.513579,-3.145149
CF24,Cardiff,Wales,51.484747,-3.166390
CF3,Cardiff,Wales,51.518032,-3.118626
CF31,Bridgend,Wales,51.507718,-3.575437
CF32,Bridgend,Wales,51.557652,-3.582809
CF33,Bridgend,Wales,51.524488,-3.687095
CF34,Bridgend,Wales,51.610761,-3.652625
CF35,Bridgend,Wales,51.521270,-3.527774
CF36,Bridgend,Wales,51.483966,-3.699788
CF37,Rhondda Cynon Taf,Wales,51.601487,-3.334257
CF38,Rhondda Cynon Taf,Wales,51.560913,-3.333486
CF39,Rhondda Cynon Taf,Wales,51.601746,-3.426585
CF3_CF30,Cardiff,Wales,51.518106,-3.118670
CF40,Rhondda Cynon Taf,Wales,51.620506,-3.452738
CF41,Rhondda Cynon Taf,Wales,51.647794,-3.482728
CF42,Rhondda Cynon Taf,Wales,51.666577,-3.521918
CF43,Rhondda Cynon Taf,Wales,51.656997,-3.449597
CF44,Rhondda Cynon Taf,Wales,51.717313,-3.457270
CF45,Rhondda Cynon Taf,Wales,51.670075,-3.362832
CF46,Merthyr Tydfil,Wales,51.663926,-3.301476
CF47,Merthyr Tydfil,Wales,51.750663,-3.375456
CF48,Merthyr Tydfil,Wales,51.742599,-3.370590
CF5,Cardiff,Wales,51.482894,-3.241502
CF61,Vale of Glamorgan,Wales,51.409446,-3.480954
CF62,Vale of Glamorgan,Wales,51.404193,-3.309225
CF63,Vale of Glamorgan,Wales,51.410606,-3.260303
CF64,Vale of Glamorgan,Wales,51.434448,-3.188143
CF71,Vale of Glamorgan,Wales,51.456926,-3.464771
CF72,Rhondda Cynon Taf,Wales,51.529879,-3.399697
CF81_NP24,Caerphilly,Wales,51.705658,-3.242423
CF82,Caerphilly,Wales,51.649327,-3.237124
CF83,Caerphilly,Wales,51.585530,-3.220549
CH1_CH70_CH88_CH99,Cheshire West and Chester,England,53.198627,-2.900300
CH1_CH88,Cheshire West and Chester,England,53.199050,-2.900030
CH2,Cheshire West and Chester,England,53.215587,-2.870708
CH25_CH41,Wirral,England,53.394855,-3.029402
CH26_CH43,Wirral,England,53.381751,-3.060521
CH27_CH44,Wirral,England,53.416206,-3.037840
CH28_CH46,Wirral,England,53.403660,-3.110992
CH29_CH47,Wirral,England,53.394790,-3.171942
CH3,Cheshire West and Chester,England,53.167867,-2.825680
CH30_CH49,Wirral,England,53.380879,-3.103080
CH31_CH60,Wirral,England,53.327341,-3.096781
CH32_CH63,Wirral,England,53.347477,-3.009957
CH33_CH64,Cheshire West and Chester,England,53.288553,-3.050439
CH34_CH65,Cheshire West and Chester,England,53.278721,-2.903228
CH4,Cheshire West and Chester,Wales,53.169503,-2.938386
CH41,Wirral,England,53.394691,-3.030756
CH42,Wirral,England,53.375233,-3.022053
CH43,Wirral,England,53.382866,-3.060147
CH45,Wirral,England,53.428270,-3.050786
CH46,Wirral,England,53.403843,-3.110937
CH47,Wirral,England,53.395843,-3.170206
CH48,Wirral,England,53.372565,-3.170850
CH49,Wirral,England,53.380986,-3.103349
CH5,Flintshire,Wales,53.204797,-3.038962
CH6,Flintshire,Wales,53.249109,-3.144271
CH60,Wirral,England,53.326945,-3.096434
CH61,Wirral,England,53.347378,-3.101770
CH62,Wirral,England,53.335866,-2.982175
CH63,Wirral,England,53.345811,-3.011375
CH64,Cheshire West and Chester,England,53.288361,-3.049266
CH66,Cheshire West and Chester,England,53.278039,-2.935614
CH7,Flintshire,Wales,53.169395,-3.134127
CH8,Flintshire,Wales,53.282253,-3.241552
CM0,Maldon,England,51.659550,0.832278
CM1,Chelmsford,England,51.745369,0.465961
CM11,Basildon,England,51.623963,0.442857
CM12,Basildon,England,51.626823,0.414862
CM13,Brentwood,England,51.615385,0.334555
CM14,Brentwood,England,51.618942,0.295528
CM15,Brentwood,England,51.641305,0.304200
CM16,Epping Forest,England,51.700239,0.118707
CM17,Harlow,England,51.772774,0.140924
CM18,Harlow,England,51.756660,0.104677
CM19,Harlow,England,51.761388,0.074314
CM19_CM92,Harlow,England,51.761627,0.073922
CM2,Chelmsford,England,51.723700,0.484970
CM20,Harlow,England,51.774538,0.100464
CM21,East Hertfordshire,England,51.811963,0.147811
CM22,Uttlesford,England,51.865242,0.217069
CM23,East Hertfordshire,England,51.871028,0.158942
CM24,Uttlesford,England,51.897736,0.206535
CM3,Chelmsford,England,51.715837,0.586497
CM3_CM98_CM99,Chelmsford,England,51.717961,0.578779
CM4,Brentwood,England,51.674975,0.388476
CM5_RM4,Epping Forest,England,51.695665,0.224838
CM6,Uttlesford,England,51.878480,0.373542
CM7,Braintree,England,51.886054,0.547815
CM77,Braintree,England,51.867547,0.552812
CM8,Braintree,England,51.804984,0.638617
CM9,Maldon,England,51.739370,0.695778
CO1,Colchester,England,51.880691,0.889686
CO10,Babergh,England,52.053994,0.726713
CO11,Tendring,England,51.942411,1.075202
CO12,Tendring,England,51.932296,1.255743
CO13,Tendring,England,51.838206,1.237896
CO14,Tendring,England,51.850255,1.267540
CO15,Tendring,England,51.796687,1.155197
CO16,Tendring,England,51.819568,1.125686
CO2,Colchester,England,51.871040,0.895382
CO3,Colchester,England,51.885293,0.858197
CO4,Colchester,England,51.906818,0.920665
CO5,Colchester,England,51.814082,0.822414
CO6,Colchester,England,51.932743,0.793417
CO7,Tendring,England,51.880661,1.002909
CO8_CO9,Braintree,England,51.968497,0.627705
CR0,Croydon,Other,51.373245,-0.078267
CR0_CR9,Croydon,England,51.373879,-0.085014
CR2,Croydon,England,51.345305,-0.095467
CR3,Tandridge,England,51.297758,-0.096731
CR4,Merton,England,51.402532,-0.144876
CR44_CR9_SM6,Sutton,England,51.369550,-0.115051
CR5,Croydon,England,51.313378,-0.141389
CR6,Tandridge,England,51.303011,-0.057425
CR7,Croydon,England,51.392683,-0.103532
CR7_CR90,Croydon,England,51.389648,-0.104169
CR8,Croydon,England,51.336428,-0.110985
CT1,Canterbury,England,51.278753,1.086630
CT10,Thanet,England,51.362885,1.429156
CT11,Thanet,England,51.336506,1.412414
CT12,Thanet,England,51.343145,1.370587
CT13,Dover,England,51.268564,1.330371
CT14,Dover,England,51.217413,1.386976
CT15,Dover,England,51.171267,1.283472
CT16,Dover,England,51.139347,1.301422
CT17,Dover,England,51.128744,1.295289
CT18,Folkestone and Hythe,England,51.112621,1.150455
CT19,Folkestone and Hythe,England,51.088378,1.168474
CT2,Canterbury,England,51.292169,1.081655
CT20,Folkestone and Hythe,England,51.079655,1.165282
CT20_CT50,Folkestone and Hythe,England,51.079651,1.165081
CT21,Folkestone and Hythe,England,51.073061,1.077990
CT3,Dover,England,51.277024,1.207326
CT4,Canterbury,England,51.228060,1.067780
CT5,Canterbury,England,51.354267,1.034532
CT6,Canterbury,England,51.364244,1.128515
CT7,Thanet,England,51.371675,1.302401
CT8,Thanet,England,51.380557,1.340581
CT9,Thanet,England,51.384010,1.388103
CV1,Coventry,England,52.408989,-1.507458
CV10,Nuneaton and Bedworth,England,52.525639,-1.499039
CV11,Nuneaton and Bedworth,England,52.520243,-1.456876
CV12,Nuneaton and Bedworth,England,52.477023,-1.473726
CV13,Hinckley and Bosworth,England,52.608080,-1.417749
CV2,Coventry,England,52.423362,-1.467676
CV21,Rugby,England,52.370790,-1.271444
CV22,Rugby,England,52.357984,-1.283112
CV23,Rugby,England,52.350145,-1.301897
CV3,Coventry,England,52.393861,-1.482776
CV31,Warwick,England,52.280028,-1.527107
CV32,Warwick,England,52.295681,-1.531882
CV33,Warwick,England,52.238416,-1.443786
CV34,Warwick,England,52.284424,-1.584796
CV35,Stratford-on-Avon,England,52.231984,-1.595348
CV36,Stratford-on-Avon,England,52.071011,-1.629833
CV37,Stratford-on-Avon,England,52.187156,-1.714973
CV4,Coventry,England,52.399613,-1.555632
CV47,Stratford-on-Avon,England,52.236592,-1.386804
CV5,Coventry,England,52.411911,-1.548326
CV6,Coventry,England,52.430950,-1.507128
CV7,Solihull,England,52.442393,-1.559107
CV8,Warwick,England,52.351253,-1.547994
CV9,North Warwickshire,England,52.584373,-1.559076
CW1,Cheshire East,England,53.099757,-2.430602
CW10,Cheshire East,England,53.189051,-2.448986
CW11,Cheshire East,England,53.143226,-2.365098
CW12,Cheshire East,England,53.166307,-2.215998
CW2,Cheshire East,England,53.081316,-2.445803
CW2_CW98,Cheshire East,England,53.081328,-2.445779
CW3,Newcastle-under-Lyme,England,53.003550,-2.410909
CW4,Cheshire East,England,53.204106,-2.340433
CW5,Cheshire East,England,53.063393,-2.521976
CW6,Cheshire West and Chester,England,53.161607,-2.667326
CW7,Cheshire West and Chester,England,53.190678,-2.527535
CW8,Cheshire West and Chester,England,53.254197,-2.559423
CW9,Cheshire West and Chester,England,53.259587,-2.503980
DA1,Dartford,England,51.447276,0.209409
DA10,Dartford,England,51.442890,0.300883
DA11,Gravesham,England,51.435374,0.351725
DA12,Gravesham,England,51.430633,0.384072
DA13,Gravesham,England,51.386061,0.354273
DA14,Bexley,England,51.425884,0.110447
DA15,Bexley,England,51.439838,0.098953
DA16,Bexley,England,51.464492,0.109008
DA17,Bexley,England,51.486568,0.150623
DA18,Bexley,England,51.491479,0.145750
DA2,Dartford,England,51.433239,0.231902
DA3,Sevenoaks,England,51.385928,0.306407
DA4,Sevenoaks,England,51.392794,0.230812
DA5,Bexley,England,51.441022,0.147447
DA6,Bexley,England,51.456117,0.138918
DA7,Bexley,England,51.465023,0.143352
DA8,Bexley,England,51.476108,0.179861
DA9,Dartford,England,51.448200,0.280642
DD1,Dundee City,Scotland,56.461825,-2.977306
DD10,Angus,Scotland,56.745297,-2.430887
DD11,Angus,Scotland,56.572423,-2.597785
DD2,Dundee City,Scotland,56.471068,-3.027964
DD3,Dundee City,Scotland,56.481982,-2.989328
DD4,Dundee City,Scotland,56.481910,-2.935707
DD5,Dundee City,Scotland,56.479512,-2.863297
DD6,Fife,Scotland,56.436950,-2.927073
DD7,Angus,Scotland,56.502767,-2.719498
DD8,Angus,Scotland,56.655667,-2.921961
DD9,Angus,Scotland,56.747575,-2.666821
DE1,Derby,England,52.918929,-1.472694
DE11,South Derbyshire,England,52.773031,-1.556841
DE12,North West Leicestershire,England,52.727402,-1.553924
DE13,East Staffordshire,England,52.807734,-1.687980
DE14,East Staffordshire,England,52.807167,-1.638879
DE15,East Staffordshire,England,52.799529,-1.610459
DE1_DE99,Derby,England,52.918916,-1.472665
DE21,Derby,England,52.932519,-1.435232
DE22,Derby,England,52.933019,-1.497593
DE23,Derby,England,52.899385,-1.499817
DE24,Derby,England,52.890478,-1.453502
DE3,Derby,England,52.915416,-1.508648
DE4,Derbyshire Dales,England,53.143739,-1.585388
DE45,Derbyshire Dales,England,53.214332,-1.677329
DE5,Amber Valley,England,53.056737,-1.425792
DE55,Amber Valley,England,53.099639,-1.371976
DE56,Amber Valley,England,53.021172,-1.476994
DE6,Derbyshire Dales,England,52.963148,-1.667958
DE65,South Derbyshire,England,52.866481,-1.620513
DE7,Erewash,England,52.940037,-1.343021
DE72,Erewash,England,52.894008,-1.366935
DE73,Derby,England,52.849449,-1.438519
DE74,North West Leicestershire,England,52.848021,-1.340728
DE75,Amber Valley,England,53.012089,-1.353309
DG1,Dumfries and Galloway,Scotland,55.073249,-3.585563
DG10_DG13_DG14_DG16,Dumfries and Galloway,England,55.174157,-3.189003
DG11,Dumfries and Galloway,Scotland,55.114639,-3.340860
DG12,Dumfries and Galloway,Scotland,54.989815,-3.251614
DG2,Dumfries and Galloway,Scotland,55.065273,-3.656622
DG3_DG4,Dumfries and Galloway,Scotland,55.292905,-3.862246
DG5,Dumfries and Galloway,Scotland,54.921515,-3.812974
DG6,Dumfries and Galloway,Scotland,54.837201,-4.055507
DG7,Dumfries and Galloway,Scotland,54.966202,-4.008728
DG8,Dumfries and Galloway,Scotland,54.874509,-4.514141
DG9,Dumfries and Galloway,Scotland,54.878601,-5.022831
DH1_DH97,County Durham,England,54.782583,-1.562578
DH1_DH99,County Durham,England,54.782659,-1.562403
DH2,County Durham,England,54.859902,-1.598294
DH3,Gateshead,England,54.870107,-1.569307
DH4,Sunderland,England,54.852864,-1.490268
DH5,Sunderland,England,54.824564,-1.455873
DH6,County Durham,England,54.753530,-1.464951
DH7,County Durham,England,54.789487,-1.661525
DH7_DH99,County Durham,Other,54.789454,-1.659186
DH8,County Durham,England,54.853308,-1.832983
DH9,County Durham,England,54.867829,-1.710951
DH98_NE11_NE82_NE83_NE88_NE92,Gateshead,England,54.939970,-1.629874
DL1,Darlington,England,54.528031,-1.541316
DL10,Richmondshire,England,54.413150,-1.699753
DL11,Richmondshire,England,54.439041,-1.871266
DL12,County Durham,England,54.570381,-1.981571
DL13,County Durham,England,54.716695,-1.951795
DL14,County Durham,England,54.653324,-1.690177
DL15,County Durham,England,54.709651,-1.729232
DL16,County Durham,England,54.699089,-1.603821
DL17,County Durham,England,54.681054,-1.543129
DL2,Darlington,England,54.527336,-1.591376
DL3,Darlington,England,54.531169,-1.569063
DL3_DL98,Darlington,England,54.531141,-1.568991
DL4,County Durham,England,54.630847,-1.645668
DL5,County Durham,England,54.616215,-1.576973
DL6,Hambleton,England,54.367977,-1.394060
DL7,Hambleton,England,54.337004,-1.479160
DL8,Richmondshire,England,54.294673,-1.785009
DL9,Richmondshire,England,54.376040,-1.710856
DN1,Doncaster,England,53.520963,-1.118413
DN10,Bassetlaw,England,53.426552,-0.941377
DN11,Doncaster,England,53.449702,-1.083727
DN12,Doncaster,England,53.483238,-1.223659
DN14,East Riding of Yorkshire,England,53.707744,-0.935109
DN15,North Lincolnshire,England,53.609633,-0.652603
DN16,North Lincolnshire,England,53.568391,-0.640029
DN17,North Lincolnshire,England,53.573326,-0.703273
DN18,North Lincolnshire,England,53.681862,-0.446226
DN19_DN39,North Lincolnshire,England,53.662189,-0.353806
DN1_DN55,Doncaster,England,53.520552,-1.118786
DN2,Doncaster,England,53.532691,-1.104196
DN20,North Lincolnshire,England,53.557854,-0.503585
DN21,West Lindsey,England,53.417317,-0.710010
DN22,Bassetlaw,England,53.324660,-0.929781
DN3,Doncaster,England,53.543733,-1.064764
DN31,North East Lincolnshire,England,53.570917,-0.084518
DN32,North East Lincolnshire,England,53.563245,-0.071106
DN33,North East Lincolnshire,England,53.540598,-0.098498
DN34,North East Lincolnshire,England,53.558035,-0.111978
DN35,North East Lincolnshire,England,53.555541,-0.037951
DN36,North East Lincolnshire,England,53.513654,-0.040277
DN37,North East Lincolnshire,England,53.550855,-0.149337
DN38_LN7,West Lindsey,England,53.509859,-0.356965
DN4,Doncaster,England,53.505962,-1.122096
DN40,North East Lincolnshire,England,53.621627,-0.223995
DN41,North East Lincolnshire,England,53.584723,-0.195573
DN5,Doncaster,England,53.536724,-1.171192
DN6,Doncaster,England,53.594759,-1.177097
DN7,Doncaster,England,53.580335,-1.017580
DN8,Doncaster,England,53.614484,-0.956500
DN9,North Lincolnshire,England,53.505550,-0.904996
DT1,Dorset,England,50.712464,-2.444125
DT10,Dorset,England,50.937108,-2.331373
DT11,Dorset,England,50.861423,-2.179894
DT2,Dorset,England,50.748519,-2.449451
DT3,Dorset,England,50.640499,-2.466878
DT4,Dorset,England,50.609862,-2.463201
DT5,Dorset,England,50.549366,-2.442806
DT6,Dorset,England,50.738679,-2.774750
DT7,Dorset,England,50.729257,-2.945794
DT8,Dorset,England,50.815017,-2.758050
DT9,Dorset,England,50.942597,-2.516680
DY1,Dudley,England,52.515139,-2.094345
DY10,Wyre Forest,England,52.386243,-2.229209
DY11,Wyre Forest,England,52.385372,-2.260366
DY11_WV98,Wyre Forest,England,52.391089,-2.249199
DY12,Wyre Forest,England,52.386443,-2.323678
DY13,Wyre Forest,England,52.337186,-2.280862
DY14,Shropshire,England,52.380995,-2.456097
DY2,Dudley,England,52.497580,-2.082601
DY3,Dudley,England,52.529762,-2.128583
DY4,Sandwell,England,52.531874,-2.054451
DY5,Dudley,England,52.480979,-2.122798
DY6,Dudley,England,52.498891,-2.164363
DY7,South Staffordshire,England,52.464573,-2.217790
DY8,Dudley,England,52.459952,-2.153917
DY9,Dudley,England,52.437529,-2.124177
E1,Tower Hamlets,England,51.516256,-0.060427
E10,Waltham Forest,England,51.568696,-0.012931
E11,Waltham Forest,England,51.567370,0.011668
E12,Newham,England,51.551035,0.050794
E13,Newham,England,51.528216,0.025811
E14,Tower Hamlets,England,51.507579,-0.020743
E15,Newham,England,51.538655,0.000570
E16,Newham,England,51.511456,0.020766
E17,Waltham Forest,England,51.586401,-0.020221
E18,Redbridge,England,51.592575,0.025546
E1W_E98,Tower Hamlets,Other,51.511540,-0.059729
E1W_E98_EC3N,Tower Hamlets,England,51.511882,-0.065887
E2,Tower Hamlets,England,51.530138,-0.062264
E20,Newham,England,51.546459,-0.010502
E3,Tower Hamlets,England,51.528158,-0.025792
E4,Waltham Forest,England,51.623841,-0.003239
E5,Hackney,England,51.559156,-0.054668
E6,Newham,England,51.525185,0.055168
E7,Newham,England,51.547556,0.026155
E8,Hackney,England,51.541262,-0.064986
E9,Hackney,England,51.541841,-0.046603
EC1A_EC2A_EC2M_EC2N_EC2P_EC2R_EC2V_EC2Y_EC3A_EC3M_EC3R_EC3V_EC4A_EC4M_EC4N_EC4R_EC4V_EC4Y,City of London,England,51.516606,-0.094013
EC1A_EC2M_EC2N_EC2P_EC2R_EC2V_EC2Y_EC3A_EC3M_EC3N_EC3P_EC3R_EC3V_EC4A_EC4M_EC4N_EC4R_EC4V_EC4Y,City of London,England,51.515727,-0.094203
EC1M_EC1P_EC1Y_EC4P,Islington,England,51.522887,-0.103766
EC1M_EC1Y,Islington,England,51.522161,-0.098935
EC1N_WC1A_WC1B_WC1E_WC1R_WC1V_WC2A,Camden,England,51.518782,-0.119683
EC1R,Islington,England,51.524494,-0.108972
EC1V,Islington,England,51.526505,-0.099307
EC2A_WC2H,Hackney,Other,51.518462,-0.107721
EH10,City of Edinburgh,Scotland,55.921547,-3.210799
EH11,City of Edinburgh,Scotland,55.933355,-3.251433
EH12,City of Edinburgh,Scotland,55.941364,-3.274021
EH13,City of Edinburgh,Scotland,55.908615,-3.242566
EH14,City of Edinburgh,Scotland,55.911469,-3.281085
EH15,City of Edinburgh,Scotland,55.947153,-3.113073
EH16,City of Edinburgh,Scotland,55.923746,-3.151314
EH17,City of Edinburgh,Scotland,55.906987,-3.144347
EH18_EH24_EH25,Midlothian,Scotland,55.863310,-3.147753
EH19,Midlothian,Scotland,55.872466,-3.105048
EH1_EH2,City of Edinburgh,Scotland,55.952714,-3.196277
EH1_EH2_EH91_EH99,City of Edinburgh,Scotland,55.952307,-3.197770
EH20,Midlothian,Scotland,55.878682,-3.154258
EH21,East Lothian,Scotland,55.939011,-3.046886
EH22,Midlothian,Scotland,55.885574,-3.061650
EH23_EH37,Midlothian,Scotland,55.846210,-3.031616
EH26,Midlothian,Scotland,55.833080,-3.223961
EH27_EH55,West Lothian,Scotland,55.857324,-3.542274
EH28_EH29,City of Edinburgh,Scotland,55.940583,-3.400418
EH3,City of Edinburgh,Scotland,55.952462,-3.204393
EH30,City of Edinburgh,Scotland,55.982685,-3.378280
EH31_EH39_EH40,East Lothian,Scotland,56.040105,-2.737744
EH32,East Lothian,Scotland,55.966469,-2.953011
EH33,East Lothian,Scotland,55.941840,-2.945070
EH34_EH35_EH36,East Lothian,Scotland,55.907548,-2.907787
EH38_EH43_EH44_TD10_TD2_TD3_TD4,Scottish Borders,Scotland,55.674225,-2.782179
EH38_EH43_EH44_TD2,Scottish Borders,Other,55.675599,-2.927417
EH4,City of Edinburgh,Scotland,55.962388,-3.255392
EH41,East Lothian,Scotland,55.949494,-2.777491
EH42,East Lothian,Scotland,55.993861,-2.524543
EH45_EH46,Scottish Borders,Scotland,55.672120,-3.224663
EH47,West Lothian,Scotland,55.860684,-3.664731
EH48,West Lothian,Scotland,55.898396,-3.661015
EH49,West Lothian,Scotland,55.976801,-3.602775
EH5,City of Edinburgh,Scotland,55.974571,-3.219332
EH51,Falkirk,Scotland,56.011592,-3.605385
EH52,West Lothian,Scotland,55.936062,-3.489213
EH53,West Lothian,Scotland,55.894155,-3.476057
EH54,West Lothian,Scotland,55.891972,-3.524883
EH5_EH95,City of Edinburgh,Scotland,55.974603,-3.219597
EH6,City of Edinburgh,Scotland,55.971161,-3.173889
EH7,City of Edinburgh,Scotland,55.959919,-3.164799
EH8,City of Edinburgh,Other,55.949933,-3.166279
EH8_EH99,City of Edinburgh,Scotland,55.949941,-3.166390
EH9,City of Edinburgh,Scotland,55.933167,-3.186949
EN1,Enfield,England,51.653210,-0.070681
EN10,Broxbourne,England,51.740912,-0.021119
EN11,Broxbourne,England,51.763843,-0.009340
EN2,Enfield,England,51.658512,-0.091715
EN3,Enfield,England,51.658118,-0.041638
EN4,Barnet,England,51.648184,-0.162356
EN5,Barnet,England,51.648302,-0.190537
EN6,Hertsmere,England,51.699028,-0.179810
EN7,Broxbourne,England,51.708248,-0.064534
EN8,Broxbourne,England,51.696200,-0.033199
EN9,Epping Forest,England,51.694606,0.010440
EX1,Exeter,England,50.726739,-3.510181
EX10,East Devon,England,50.691933,-3.245768
EX11,East Devon,England,50.747157,-3.288636
EX12_EX24,East Devon,England,50.715613,-3.082923
EX13,East Devon,England,50.773838,-3.025365
EX14,East Devon,England,50.810938,-3.200143
EX15,Mid Devon,England,50.875613,-3.346027
EX16,Mid Devon,England,50.920512,-3.490913
EX17_EX18,Mid Devon,England,50.824956,-3.731742
EX19_EX38,Torridge,England,50.917196,-4.089703
EX2,Exeter,England,50.711462,-3.515339
EX20,West Devon,England,50.750730,-4.015450
EX21_EX22,Torridge,England,50.819300,-4.317102
EX23,Cornwall,England,50.824841,-4.534205
EX3,Exeter,England,50.693988,-3.459870
EX31_EX35,North Devon,England,51.101293,-4.040409
EX32,North Devon,England,51.073205,-4.027071
EX33,North Devon,England,51.112584,-4.166215
EX34,North Devon,England,51.199189,-4.107816
EX36_EX37,North Devon,England,51.004846,-3.849628
EX39,Torridge,England,51.016004,-4.242613
EX4,Exeter,England,50.730239,-3.526510
EX5,East Devon,England,50.754871,-3.436984
EX6,Teignbridge,England,50.675713,-3.592699
EX7,Teignbridge,England,50.585950,-3.470911
EX8,East Devon,England,50.628434,-3.403050
EX9,East Devon,England,50.638934,-3.323659
FK1,Falkirk,Scotland,55.988703,-3.793073
FK10,Clackmannanshire,Scotland,56.115008,-3.783332
FK11_FK12,Clackmannanshire,Scotland,56.151389,-3.817868
FK13,Clackmannanshire,Scotland,56.150235,-3.742484
FK14_PH4,Clackmannanshire,Other,56.181909,-3.688007
FK14_PH4_PH5_PH6,Clackmannanshire,Scotland,56.257664,-3.797685
FK15,Stirling,Scotland,56.200002,-3.952305
FK16_FK17_FK18_FK19_FK20_FK21,Stirling,Scotland,56.285972,-4.231805
FK2,Falkirk,Scotland,56.005030,-3.757966
FK3,Falkirk,Scotland,56.011927,-3.720417
FK4,Falkirk,Scotland,55.997596,-3.907327
FK5,Falkirk,Scotland,56.025482,-3.820211
FK6,Falkirk,Scotland,56.021569,-3.914544
FK7,Stirling,Scotland,56.099375,-3.918100
FK8,Stirling,Scotland,56.129028,-4.034276
FK9,Stirling,Scotland,56.141596,-3.941378
FY1,Blackpool,England,53.816100,-3.048272
FY2,Blackpool,England,53.844375,-3.040234
FY3,Blackpool,England,53.821073,-3.022660
FY4,Blackpool,England,53.792010,-3.030531
FY5,Wyre,England,53.873583,-3.024336
FY6,Wyre,England,53.864933,-2.980451
FY7,Wyre,England,53.916546,-3.025499
FY8,Fylde,England,53.750427,-3.006573
G11,Glasgow City,Scotland,55.873528,-4.313240
G12,Glasgow City,Scotland,55.879664,-4.302028
G13,Glasgow City,Scotland,55.892843,-4.347155
G14,Glasgow City,Scotland,55.880142,-4.350558
G15,Glasgow City,Scotland,55.910345,-4.366947
G1_G2,Glasgow City,Scotland,55.862392,-4.253473
G1_G2_G58_G9_G90,Glasgow City,Scotland,55.862471,-4.253314
G20,Glasgow City,Scotland,55.885492,-4.282038
G21,Glasgow City,Scotland,55.880495,-4.222839
G22,Glasgow City,Scotland,55.889565,-4.252609
G23,Glasgow City,Scotland,55.902174,-4.285240
G3,Glasgow City,Scotland,55.866310,-4.270273
G31,Glasgow City,Scotland,55.856188,-4.209291
G32,Glasgow City,Scotland,55.848783,-4.166307
G33,Glasgow City,Scotland,55.872943,-4.165010
G34,Glasgow City,Scotland,55.867905,-4.112598
G4,Glasgow City,Scotland,55.868140,-4.251595
G40,Glasgow City,Scotland,55.847482,-4.221107
G41,Glasgow City,Scotland,55.838653,-4.281634
G42,Glasgow City,Scotland,55.834079,-4.258679
G43,Glasgow City,Scotland,55.818485,-4.292392
G44,Glasgow City,Scotland,55.814162,-4.257691
G45,Glasgow City,Scotland,55.804572,-4.233091
G46,East Renfrewshire,Scotland,55.804345,-4.306983
G5,Glasgow City,Scotland,55.847702,-4.253939
G51,Glasgow City,Scotland,55.857418,-4.313143
G52,Glasgow City,Scotland,55.849576,-4.353187
G53,Glasgow City,Scotland,55.820876,-4.352413
G60,West Dunbartonshire,Scotland,55.918228,-4.443481
G61,East Dunbartonshire,Scotland,55.919196,-4.330236
G62,East Dunbartonshire,Scotland,55.942556,-4.320319
G63,Stirling,Scotland,56.042764,-4.369760
G64,East Dunbartonshire,Scotland,55.910915,-4.217951
G65,North Lanarkshire,Scotland,55.972124,-4.099915
G66,East Dunbartonshire,Scotland,55.940276,-4.154423
G67,North Lanarkshire,Scotland,55.947830,-3.985711
G68,North Lanarkshire,Scotland,55.953224,-4.010933
G68_G70,North Lanarkshire,Scotland,55.953146,-4.010359
G69,North Lanarkshire,Scotland,55.874029,-4.102489
G71,North Lanarkshire,Scotland,55.821800,-4.075715
G72,South Lanarkshire,Scotland,55.804576,-4.130539
G73,South Lanarkshire,Scotland,55.821778,-4.206813
G74_G79,South Lanarkshire,Scotland,55.767823,-4.177961
G75,South Lanarkshire,Scotland,55.751204,-4.195319
G76,East Renfrewshire,Scotland,55.778273,-4.273357
G77,East Renfrewshire,Scotland,55.773943,-4.331406
G78,East Renfrewshire,Scotland,55.793502,-4.409022
G81,West Dunbartonshire,Scotland,55.912068,-4.407160
G82,West Dunbartonshire,Scotland,55.950950,-4.573528
G83,West Dunbartonshire,Scotland,56.011734,-4.587355
G84,Argyll and Bute,Scotland,56.014045,-4.754729
GL1,Gloucester,England,51.857491,-2.245015
GL10,Stroud,England,51.744244,-2.283036
GL11,Stroud,England,51.692157,-2.357361
GL12_GL9,Stroud,England,51.615553,-2.367957
GL13,Stroud,England,51.693010,-2.453799
GL14,Forest of Dean,England,51.818808,-2.484361
GL15,Forest of Dean,England,51.735019,-2.549838
GL16,Forest of Dean,England,51.795075,-2.613224
GL17,Forest of Dean,England,51.854915,-2.508079
GL18,Forest of Dean,England,51.940697,-2.413913
GL19,Forest of Dean,England,51.937974,-2.284358
GL2,Gloucester,England,51.841311,-2.269871
GL20,Tewkesbury,England,52.002731,-2.131127
GL3,Tewkesbury,England,51.859753,-2.180835
GL4,Gloucester,England,51.842913,-2.218922
GL5,Stroud,England,51.739264,-2.221193
GL50,Cheltenham,England,51.901477,-2.081491
GL51,Cheltenham,England,51.896674,-2.108268
GL52,Cheltenham,England,51.922182,-2.060716
GL53,Cheltenham,England,51.882025,-2.069069
GL54,Cotswold,England,51.898051,-1.867570
GL55,Cotswold,England,52.062330,-1.771197
GL56,Cotswold,England,51.990219,-1.704024
GL6,Stroud,England,51.738323,-2.198894
GL7,Cotswold,England,51.711409,-1.906021
GL8,Cotswold,England,51.641518,-2.169092
GU1,Guildford,England,51.243115,-0.570127
GU10,Waverley,England,51.198388,-0.797403
GU11,Rushmoor,England,51.249708,-0.762474
GU12,Guildford,England,51.251910,-0.733434
GU14,Rushmoor,England,51.291033,-0.761396
GU15,Surrey Heath,England,51.335539,-0.750558
GU16,Surrey Heath,England,51.313754,-0.731175
GU17,Hart,England,51.336595,-0.806573
GU18,Surrey Heath,England,51.347495,-0.663155
GU19_GU20,Surrey Heath,England,51.363243,-0.673969
GU2,Guildford,England,51.244780,-0.593029
GU21,Woking,England,51.319862,-0.577381
GU22,Woking,England,51.313392,-0.553198
GU23,Guildford,England,51.297661,-0.510969
GU24,Surrey Heath,England,51.330147,-0.625355
GU25,Runnymede,England,51.401383,-0.569681
GU26,Waverley,England,51.110292,-0.746140
GU27,Waverley,England,51.083576,-0.722288
GU28,Chichester,England,50.991119,-0.628407
GU29,Chichester,England,50.984473,-0.746560
GU3,Guildford,England,51.246862,-0.621492
GU30,East Hampshire,England,51.075596,-0.803681
GU31,East Hampshire,England,50.997753,-0.908555
GU32,East Hampshire,England,51.007842,-0.961121
GU33,East Hampshire,England,51.047937,-0.893585
GU34,East Hampshire,England,51.140555,-0.984787
GU35,East Hampshire,England,51.116740,-0.851291
GU4,Guildford,England,51.243003,-0.546694
GU46,Hart,England,51.338464,-0.824069
GU47,Bracknell Forest,England,51.347552,-0.793202
GU5,Waverley,England,51.206334,-0.522063
GU51,Hart,England,51.285220,-0.839848
GU52,Hart,England,51.265954,-0.838273
GU6,Waverley,England,51.140826,-0.485217
GU7,Waverley,England,51.188914,-0.610689
GU8,Waverley,England,51.152187,-0.640031
GU9,Waverley,England,51.217893,-0.795908
HA0,Brent,England,51.550123,-0.304737
HA1,Harrow,England,51.581359,-0.336166
HA2,Harrow,England,51.575758,-0.354855
HA3,Harrow,England,51.591518,-0.322938
HA4,Hillingdon,England,51.570789,-0.410440
HA5,Harrow,England,51.594651,-0.385880
HA6,Hillingdon,England,51.610024,-0.420609
HA7,Harrow,England,51.609670,-0.306999
HA8,Barnet,England,51.611587,-0.275254
HA9,Brent,England,51.558649,-0.289947
HD1,Kirklees,England,53.646878,-1.786324
HD2,Kirklees,England,53.666895,-1.776682
HD3,Kirklees,England,53.652865,-1.830387
HD4,Kirklees,England,53.627225,-1.797341
HD5,Kirklees,England,53.647568,-1.748806
HD6,Calderdale,England,53.701703,-1.782813
HD7,Kirklees,England,53.599019,-1.829372
HD8,Kirklees,England,53.600651,-1.675390
HD9,Kirklees,England,53.579204,-1.795822
HG1,Harrogate,England,53.999782,-1.532607
HG2,Harrogate,England,53.987703,-1.528053
HG3,Harrogate,England,54.030294,-1.614294
HG4,Harrogate,England,54.153993,-1.559425
HG5,Harrogate,England,54.013193,-1.459634
HP1,Dacorum,England,51.754856,-0.479936
HP10,Buckinghamshire,England,51.610742,-0.710191
HP11,Buckinghamshire,England,51.625261,-0.746470
HP12,Buckinghamshire,England,51.624710,-0.778060
HP13,Buckinghamshire,England,51.633023,-0.741451
HP14,Buckinghamshire,England,51.648700,-0.825819
HP15,Buckinghamshire,England,51.653323,-0.717456
HP16,Buckinghamshire,England,51.702396,-0.717867
HP17,Buckinghamshire,England,51.750026,-0.852005
HP18,Buckinghamshire,England,51.816803,-0.960615
HP19,Buckinghamshire,England,51.823835,-0.826374
HP2,Dacorum,England,51.762040,-0.454445
HP20,Buckinghamshire,England,51.819655,-0.807425
HP21,Buckinghamshire,England,51.806840,-0.806178
HP22,Buckinghamshire,England,51.800600,-0.768708
HP23,Dacorum,England,51.794945,-0.662219
HP27,Buckinghamshire,England,51.721770,-0.831058
HP3,Dacorum,England,51.737266,-0.471665
HP4,Dacorum,England,51.766744,-0.567767
HP5,Buckinghamshire,England,51.713073,-0.608530
HP6,Buckinghamshire,England,51.677422,-0.601583
HP7,Buckinghamshire,England,51.666340,-0.610427
HP8,Buckinghamshire,England,51.644759,-0.576042
HP9,Buckinghamshire,England,51.610355,-0.642019
HR1,"Herefordshire, County of",England,52.057048,-2.689372
HR2,"Herefordshire, County of",England,52.013503,-2.778163
HR3_HR5,"Herefordshire, County of",England,52.129919,-3.054212
HR4,"Herefordshire, County of",England,52.084749,-2.761064
HR6,"Herefordshire, County of",England,52.231793,-2.768695
HR7,"Herefordshire, County of",England,52.184506,-2.525042
HR8,"Herefordshire, County of",England,52.044103,-2.442149
HR9,"Herefordshire, County of",England,51.908395,-2.581534
HS1,Na h-Eileanan Siar,Scotland,58.212056,-6.381416
HS1_HS2,Na h-Eileanan Siar,Other,58.232240,-6.423527
HS2_HS3_HS4_HS5,Na h-Eileanan Siar,Scotland,58.167934,-6.541383
HS3_HS4_HS5_HS6_HS7_HS8_HS9,Na h-Eileanan Siar,Other,57.494115,-7.210827
HS6_HS7_HS8_HS9,Na h-Eileanan Siar,Scotland,57.344030,-7.355750
HU10,East Riding of Yorkshire,England,53.747822,-0.440350
HU11,East Riding of Yorkshire,England,53.830447,-0.237110
HU12,East Riding of Yorkshire,England,53.723969,-0.135380
HU13,East Riding of Yorkshire,England,53.724658,-0.437286
HU14,East Riding of Yorkshire,England,53.727377,-0.488399
HU15,East Riding of Yorkshire,England,53.747216,-0.618652
HU16,East Riding of Yorkshire,England,53.781335,-0.421640
HU17,East Riding of Yorkshire,England,53.846022,-0.426272
HU18,East Riding of Yorkshire,England,53.908685,-0.170232
HU19,East Riding of Yorkshire,England,53.723298,0.034086
HU1_HU2,"Kingston upon Hull, City of",England,53.745232,-0.337031
HU20_YO43,East Riding of Yorkshire,England,53.846246,-0.670933
HU3,"Kingston upon Hull, City of",England,53.741332,-0.365440
HU4,"Kingston upon Hull, City of",England,53.736455,-0.399392
HU5,"Kingston upon Hull, City of",England,53.759481,-0.374533
HU6,"Kingston upon Hull, City of",England,53.780865,-0.368836
HU7,"Kingston upon Hull, City of",England,53.788797,-0.330271
HU8,"Kingston upon Hull, City of",England,53.767787,-0.305009
HU9,"Kingston upon Hull, City of",England,53.753593,-0.296227
HX1,Calderdale,England,53.721726,-1.867902
HX2,Calderdale,England,53.738414,-1.904229
HX3,Calderdale,England,53.726386,-1.845874
HX4,Calderdale,England,53.680629,-1.879903
HX5,Calderdale,England,53.686455,-1.836137
HX6,Calderdale,England,53.698527,-1.923340
HX7,Calderdale,England,53.739362,-2.008977
IG1,Redbridge,England,51.559171,0.072759
IG10,Epping Forest,England,51.648322,0.065379
IG11,Barking and Dagenham,England,51.534906,0.091842
IG2,Redbridge,England,51.573296,0.079463
IG3,Redbridge,England,51.562490,0.097782
IG4,Redbridge,England,51.577202,0.054948
IG5,Redbridge,England,51.585937,0.064710
IG6,Redbridge,England,51.591804,0.086990
IG7,Epping Forest,England,51.613701,0.087466
IG8,Redbridge,England,51.610886,0.035851
IG9,Epping Forest,England,51.624061,0.038900
IP1,Ipswich,England,52.062645,1.142324
IP10_IP5,East Suffolk,England,52.046411,1.251167
IP11,East Suffolk,England,51.966935,1.334095
IP12,East Suffolk,England,52.093932,1.364300
IP13,East Suffolk,England,52.184782,1.320777
IP14,Mid Suffolk,England,52.204320,1.028904
IP15_IP16,East Suffolk,England,52.187614,1.587829
IP17,East Suffolk,England,52.229795,1.501294
IP18_IP19,East Suffolk,England,52.337315,1.552334
IP2,Ipswich,England,52.046280,1.134469
IP20,South Norfolk,England,52.405988,1.318376
IP21,Mid Suffolk,England,52.365653,1.229441
IP22,South Norfolk,Other,52.377970,1.072225
IP22_IP98,South Norfolk,England,52.377951,1.072749
IP23,Mid Suffolk,England,52.313600,1.120625
IP23_IP98,Mid Suffolk,Other,52.316600,1.120151
IP24,Breckland,England,52.419094,0.756119
IP25,Breckland,England,52.578149,0.834714
IP26,King's Lynn and West Norfolk,England,52.505734,0.576721
IP27,West Suffolk,England,52.429761,0.583657
IP28,West Suffolk,England,52.327899,0.536726
IP29,West Suffolk,England,52.195497,0.662817
IP3,Ipswich,England,52.042084,1.185049
IP30,Mid Suffolk,England,52.212078,0.835842
IP31,West Suffolk,England,52.289694,0.825345
IP32,West Suffolk,England,52.253508,0.719184
IP33,West Suffolk,England,52.243242,0.712811
IP4,Ipswich,England,52.059605,1.175764
IP6,Mid Suffolk,England,52.128363,1.112238
IP7,Babergh,England,52.066148,0.949720
IP8,Babergh,England,52.063199,1.083016
IP9,Babergh,England,51.993244,1.147673
IV12,Highland,Scotland,57.574804,-3.865418
IV13_PH19_PH20_PH23_PH24_PH25_PH26_PH30_PH31_PH34_PH49_PH50,Highland,Other,57.118347,-4.122816
IV13_PH20_PH22_PH23_PH24_PH25_PH26,Highland,Scotland,57.245157,-3.782164
IV14_IV15_IV16,Highland,Other,57.604821,-4.442197
IV14_IV16_IV23_IV24,Highland,Scotland,57.704086,-4.568101
IV15,Highland,Scotland,57.598496,-4.431099
IV17,Highland,Scotland,57.698589,-4.255964
IV18,Highland,Scotland,57.700810,-4.156284
IV19_IV20,Highland,Scotland,57.799260,-4.007489
IV19_IV20_IV25,Highland,Other,57.827214,-4.017893
IV1_IV10_IV11_IV8_IV9,Highland,Scotland,57.501302,-4.188133
IV1_IV10_IV11_IV8_IV9_IV99,Highland,Scotland,57.501220,-4.188282
IV2,Highland,Scotland,57.468326,-4.190332
IV21_IV22_IV23_IV24_IV26_IV27,Highland,Other,57.983011,-5.055324
IV21_IV22_IV4_IV52_IV53_IV54,Highland,Scotland,57.539025,-5.163898
IV25_IV28_KW10_KW11_KW12_KW13_KW2_KW3_KW5_KW6_KW7_KW8_KW9,Highland,Scotland,58.074475,-3.818038
IV26_IV27,Highland,Scotland,58.158968,-4.919690
IV28_KW10_KW11_KW12_KW13_KW2_KW3_KW5_KW6_KW7_KW8_KW9,Highland,Other,58.159282,-3.716492
IV3,Highland,Scotland,57.463257,-4.271775
IV30,Moray,Scotland,57.653841,-3.327932
IV31,Moray,Scotland,57.717017,-3.290641
IV36,Moray,Scotland,57.610199,-3.607173
IV40_IV63_PH31_PH32_PH35,Highland,Scotland,57.238426,-5.111923
IV41_IV42_IV43_IV44_IV45_IV46_IV47_IV48_IV49_IV55_IV56_PH41_PH42_PH43_PH44,Highland,Other,57.239561,-6.123192
IV41_IV42_IV43_IV44_IV45_IV46_IV47_IV48_IV49_IV55_IV56_PH42_PH43_PH44,Highland,Scotland,57.283896,-6.177867
IV4_IV40_IV52_IV53_IV54,Highland,Other,57.377921,-5.194346
IV51,Highland,Scotland,57.484963,-6.250024
IV5_IV6,Highland,Scotland,57.509423,-4.449340
IV63_PA80_PH32_PH35_PH36_PH37_PH38_PH39_PH40,Highland,Other,57.042618,-5.319763
IV7,Highland,Scotland,57.584013,-4.392206
KA1,East Ayrshire,Scotland,55.597110,-4.496982
KA10,South Ayrshire,Scotland,55.549496,-4.649997
KA11,North Ayrshire,Scotland,55.617661,-4.629535
KA12,North Ayrshire,Scotland,55.617931,-4.665874
KA13,North Ayrshire,Scotland,55.655312,-4.700114
KA14_KA24,North Ayrshire,Scotland,55.713804,-4.710106
KA15,North Ayrshire,Scotland,55.748401,-4.626967
KA16_KA17,East Ayrshire,Scotland,55.608847,-4.312453
KA18,East Ayrshire,Scotland,55.450808,-4.241990
KA19,South Ayrshire,Scotland,55.346392,-4.669956
KA2,East Ayrshire,Scotland,55.596744,-4.561293
KA20,North Ayrshire,Scotland,55.640746,-4.753191
KA21,North Ayrshire,Scotland,55.641175,-4.784798
KA22,North Ayrshire,Scotland,55.648736,-4.807621
KA23_KA28_KA29,North Ayrshire,Scotland,55.715992,-4.868743
KA25,North Ayrshire,Scotland,55.752139,-4.689171
KA26,South Ayrshire,Scotland,55.220168,-4.836061
KA27_PA28,Argyll and Bute,Scotland,55.482634,-5.406804
KA27_PA28_PA29_PA30_PA41,Argyll and Bute,Other,55.564754,-5.421392
KA3,East Ayrshire,Scotland,55.642831,-4.496825
KA30_PA17,North Ayrshire,Scotland,55.807904,-4.865491
KA4,East Ayrshire,Scotland,55.599358,-4.384714
KA5,East Ayrshire,Scotland,55.509172,-4.384618
KA6,East Ayrshire,Scotland,55.417682,-4.509157
KA7,South Ayrshire,Scotland,55.450546,-4.630546
KA8,South Ayrshire,Scotland,55.471460,-4.613764
KA9,South Ayrshire,Scotland,55.498252,-4.606051
KT1,Kingston upon Thames,England,51.407093,-0.297593
KT10,Elmbridge,England,51.371058,-0.357205
KT11,Elmbridge,England,51.328175,-0.404717
KT12,Elmbridge,England,51.377350,-0.408755
KT13,Elmbridge,England,51.369216,-0.451462
KT14,Woking,England,51.340173,-0.486375
KT15,Runnymede,England,51.365039,-0.494549
KT16,Runnymede,England,51.384176,-0.513869
KT17,Epsom and Ewell,England,51.339768,-0.253097
KT18,Epsom and Ewell,England,51.318958,-0.263665
KT19,Epsom and Ewell,England,51.350060,-0.269358
KT2,Kingston upon Thames,England,51.416128,-0.291047
KT20,Reigate and Banstead,England,51.287097,-0.231881
KT21,Mole Valley,England,51.310938,-0.302936
KT22,Mole Valley,England,51.300606,-0.337653
KT23,Mole Valley,England,51.281947,-0.370976
KT24,Guildford,England,51.269204,-0.430012
KT3,Kingston upon Thames,England,51.399665,-0.256793
KT4,Sutton,England,51.378681,-0.243108
KT5,Kingston upon Thames,England,51.392779,-0.287890
KT6,Kingston upon Thames,England,51.389689,-0.300620
KT7,Elmbridge,England,51.390233,-0.328698
KT8,Elmbridge,England,51.401594,-0.366922
KT9,Kingston upon Thames,England,51.364754,-0.303176
KW1,Highland,Scotland,58.455879,-3.118722
KW14,Highland,Scotland,58.588661,-3.555377
KW15_KW16,Orkney Islands,Scotland,58.974866,-3.043812
KW17,Orkney Islands,Scotland,59.030158,-3.007528
KY1,Fife,Scotland,56.126652,-3.141192
KY10_KY9,Fife,Scotland,56.224831,-2.734460
KY11,Fife,Scotland,56.049525,-3.412257
KY12,Fife,Scotland,56.075896,-3.488327
KY12_KY99,Fife,Scotland,56.075538,-3.487467
KY13,Perth and Kinross,Scotland,56.208014,-3.431496
KY14,Fife,Scotland,56.310958,-3.232500
KY15,Fife,Scotland,56.300902,-3.051018
KY16,Fife,Scotland,56.341466,-2.819339
KY2,Fife,Scotland,56.122487,-3.183010
KY3,Fife,Scotland,56.063042,-3.232002
KY4,Fife,Scotland,56.113943,-3.361768
KY5,Fife,Scotland,56.144528,-3.295583
KY6,Fife,Scotland,56.196592,-3.196607
KY7,Fife,Scotland,56.210657,-3.155066
KY8,Fife,Scotland,56.197089,-3.012473
L10,Sefton,England,53.473734,-2.928116
L11,Liverpool,England,53.447335,-2.914660
L12,Liverpool,England,53.434549,-2.896768
L13,Liverpool,England,53.415147,-2.921612
L14,Liverpool,England,53.419129,-2.881815
L15,Liverpool,England,53.397291,-2.922655
L16,Liverpool,England,53.398176,-2.892047
L17,Liverpool,England,53.378616,-2.942211
L18,Liverpool,England,53.380527,-2.909421
L19,Liverpool,England,53.358159,-2.903095
L1_L2_L69_L70,Liverpool,Other,53.403634,-2.979612
L1_L2_L75,Liverpool,England,53.405587,-2.985229
L20,Sefton,England,53.452239,-2.990083
L21,Sefton,England,53.470705,-3.000400
L22,Sefton,England,53.476735,-3.027464
L23,Sefton,England,53.489222,-3.024375
L24,Liverpool,Other,53.344392,-2.842979
L24_L70,Liverpool,England,53.362679,-2.879583
L25,Liverpool,England,53.379005,-2.863901
L26,Knowsley,England,53.365559,-2.836301
L27,Liverpool,England,53.387993,-2.840154
L28,Knowsley,England,53.435203,-2.866515
L29_L30_L38,Sefton,England,53.490856,-2.986320
L29_L30_L38_L68_L71_L72_L75_L80,Sefton,England,53.485933,-2.985514
L31,Sefton,England,53.513390,-2.938622
L32,Knowsley,England,53.478567,-2.889366
L33,Knowsley,England,53.488746,-2.876085
L34,Knowsley,England,53.435298,-2.815154
L35,Knowsley,England,53.416456,-2.785078
L36,Knowsley,England,53.414245,-2.841556
L37,Sefton,England,53.556982,-3.063797
L39,West Lancashire,England,53.562990,-2.893354
L3_L74,Liverpool,England,53.408510,-2.985612
L4,Liverpool,England,53.437794,-2.962035
L40,West Lancashire,England,53.598982,-2.846417
L5,Liverpool,England,53.424829,-2.977630
L6,Liverpool,England,53.418603,-2.953325
L67_L9,Liverpool,England,53.460522,-2.952511
L69_L7,Liverpool,England,53.402894,-2.968424
L7,Liverpool,Other,53.405452,-2.950402
L8,Liverpool,England,53.390162,-2.963991
LA1,Lancaster,England,54.046954,-2.800211
LA10_LA8,South Lakeland,England,54.320980,-2.680832
LA11,South Lakeland,England,54.199544,-2.924082
LA12,South Lakeland,England,54.202510,-3.084137
LA13,Barrow-in-Furness,England,54.118289,-3.199211
LA14,Barrow-in-Furness,England,54.117829,-3.230618
LA15_LA16,Barrow-in-Furness,England,54.164546,-3.186622
LA17_LA20_LA21_LA22,South Lakeland,England,54.381912,-3.040845
LA18,Copeland,England,54.215156,-3.275481
LA2,Lancaster,England,54.066107,-2.675039
LA23,South Lakeland,England,54.372556,-2.912663
LA3,Lancaster,England,54.051954,-2.878034
LA4,Lancaster,England,54.070402,-2.854614
LA5,Lancaster,England,54.143086,-2.789962
LA6,South Lakeland,England,54.174596,-2.616083
LA7,South Lakeland,England,54.225951,-2.773145
LA9,South Lakeland,England,54.326224,-2.743955
LD1,Powys,Wales,52.258004,-3.367727
LD2,Powys,Wales,52.143362,-3.394979
LD3,Powys,Wales,51.958172,-3.374218
LD4_LD5_LD6_SY18,Powys,Wales,52.320127,-3.550163
LD7_LD8,Powys,Wales,52.311261,-3.070574
LE10,Hinckley and Bosworth,England,52.537424,-1.370398
LE11,Charnwood,England,52.770410,-1.220464
LE12,Charnwood,England,52.768465,-1.192347
LE13,Melton,England,52.766559,-0.883844
LE14,Melton,England,52.782572,-0.895506
LE15,Rutland,England,52.659329,-0.706479
LE16,Harborough,England,52.485252,-0.898758
LE16_LE94,Harborough,England,52.485227,-0.898865
LE17,Harborough,England,52.467560,-1.181871
LE18,Oadby and Wigston,England,52.583430,-1.111610
LE19,Blaby,England,52.585649,-1.213222
LE19_LE21_LE41_LE95,Blaby,England,52.605151,-1.182720
LE1_LE55_LE87,Leicester,England,52.634997,-1.136444
LE1_LE87,Leicester,England,52.633449,-1.132095
LE2,Leicester,England,52.611189,-1.117999
LE3,Leicester,England,52.626892,-1.181584
LE4,Leicester,England,52.662670,-1.122528
LE5,Leicester,England,52.636874,-1.093275
LE6,Hinckley and Bosworth,England,52.713656,-1.363779
LE65,North West Leicestershire,England,52.748516,-1.469827
LE67,North West Leicestershire,England,52.716051,-1.362780
LE7,Charnwood,England,52.685369,-1.070828
LE8,Blaby,England,52.564290,-1.107445
LE9,Hinckley and Bosworth,England,52.571993,-1.270904
LL11,Wrexham,Wales,53.059135,-3.027235
LL12,Wrexham,Wales,53.085915,-2.990303
LL13,Wrexham,Wales,53.036325,-2.963570
LL14,Wrexham,Wales,52.992364,-3.052553
LL15,Denbighshire,Wales,53.105170,-3.315422
LL16,Denbighshire,Wales,53.185248,-3.430958
LL17,Denbighshire,Wales,53.255380,-3.438736
LL18,Denbighshire,Wales,53.311797,-3.477767
LL19,Denbighshire,Wales,53.331397,-3.410806
LL20,Denbighshire,Wales,52.961007,-3.162231
LL21,Denbighshire,Wales,52.988774,-3.408285
LL22,Conwy,Wales,53.271669,-3.591293
LL23_LL37_LL38_LL39_LL40_LL42,Gwynedd,Wales,52.777382,-3.866961
LL24_LL25_LL26_LL27,Conwy,Wales,53.102421,-3.798909
LL28,Conwy,Wales,53.289071,-3.758971
LL29,Conwy,Wales,53.290751,-3.712560
LL30,Conwy,Wales,53.317313,-3.817932
LL31,Conwy,Wales,53.291224,-3.810848
LL32_LL34,Conwy,Wales,53.265375,-3.868482
LL33_LL57,Gwynedd,Wales,53.215523,-4.097449
LL35_LL36,Gwynedd,Wales,52.588016,-4.059101
LL41_LL43_LL44_LL45_LL46_LL47,Gwynedd,Wales,52.913377,-4.003949
LL48_LL49_LL51_LL52,Gwynedd,Wales,52.932560,-4.154117
LL53,Gwynedd,Other,52.884461,-4.487958
LL53_LL56,Gwynedd,Wales,52.911972,-4.461838
LL54,Gwynedd,Wales,53.060500,-4.285932
LL55,Gwynedd,Wales,53.133815,-4.211101
LL55_LL56,Gwynedd,Other,53.138644,-4.210110
LL58_LL59,Isle of Anglesey,Wales,53.256083,-4.132123
LL60_LL62_LL63_LL64,Isle of Anglesey,Wales,53.217335,-4.391984
LL61,Isle of Anglesey,Wales,53.197056,-4.258997
LL65,Isle of Anglesey,Wales,53.301028,-4.575129
LL66_LL67_LL68_LL71,Isle of Anglesey,Wales,53.384758,-4.387632
LL69_LL70_LL72_LL73_LL74_LL75_LL76_LL78,Isle of Anglesey,Wales,53.324373,-4.249059
LL77,Isle of Anglesey,Wales,53.259422,-4.312536
LN1,Lincoln,England,53.256116,-0.584655
LN10,East Lindsey,England,53.157675,-0.216001
LN11,East Lindsey,England,53.372371,0.022440
LN12,East Lindsey,England,53.329643,0.262853
LN13,East Lindsey,England,53.264768,0.182820
LN2,Lincoln,England,53.259083,-0.511118
LN3,West Lindsey,England,53.280808,-0.338871
LN4,North Kesteven,England,53.153198,-0.390431
LN5,Lincoln,England,53.187204,-0.553201
LN6,Lincoln,England,53.202848,-0.596620
LN8,West Lindsey,England,53.375547,-0.329236
LN9,East Lindsey,England,53.216019,-0.111795
LS1,Leeds,England,53.797362,-1.552962
LS10,Leeds,England,53.765201,-1.531875
LS10_LS88_LS98_LS99,Leeds,England,53.764713,-1.530849
LS11,Leeds,Other,53.778088,-1.556745
LS11_LS98,Leeds,England,53.778059,-1.556586
LS12,Leeds,England,53.791413,-1.595293
LS13,Leeds,England,53.811090,-1.634909
LS14,Leeds,England,53.827054,-1.458252
LS15,Leeds,England,53.806714,-1.446373
LS16,Leeds,England,53.850492,-1.604219
LS17,Leeds,England,53.858294,-1.529056
LS18,Leeds,England,53.840917,-1.644593
LS19,Leeds,England,53.860749,-1.685843
LS2,Leeds,England,53.801443,-1.547476
LS20,Leeds,England,53.873332,-1.713710
LS21,Leeds,England,53.910227,-1.682813
LS22,Leeds,England,53.931650,-1.392723
LS23,Leeds,England,53.906584,-1.353000
LS24,Selby,England,53.871379,-1.254993
LS25,Leeds,England,53.786167,-1.325772
LS26,Leeds,England,53.756377,-1.443696
LS27,Leeds,England,53.749082,-1.604884
LS28,Leeds,England,53.801599,-1.669158
LS29,Bradford,England,53.919705,-1.804571
LS3,Leeds,England,53.801567,-1.563215
LS4,Leeds,England,53.808487,-1.582783
LS5,Leeds,England,53.818144,-1.602407
LS6,Leeds,England,53.818525,-1.566383
LS7,Leeds,England,53.817693,-1.540492
LS8,Leeds,England,53.821690,-1.512331
LS9,Leeds,England,53.798820,-1.511819
LU1,Luton,England,51.876349,-0.424701
LU2,Luton,England,51.890794,-0.397873
LU3,Luton,England,51.906741,-0.443357
LU4,Luton,England,51.898512,-0.465273
LU5,Central Bedfordshire,England,51.907376,-0.514837
LU6,Central Bedfordshire,England,51.880880,-0.532814
LU7,Central Bedfordshire,England,51.910898,-0.661910
M1,Manchester,England,53.477713,-2.236815
M11,Manchester,England,53.478399,-2.183276
M12,Manchester,England,53.465623,-2.205534
M13,Manchester,England,53.462171,-2.217153
M14,Manchester,England,53.446931,-2.225065
M15,Manchester,England,53.466057,-2.252409
M16,Manchester,England,53.455938,-2.265088
M17_M32,Trafford,England,53.455238,-2.310465
M18,Manchester,England,53.461604,-2.172800
M19,Manchester,England,53.437713,-2.195521
M20,Manchester,England,53.425097,-2.231677
M21,Manchester,England,53.438838,-2.273402
M22,Manchester,Other,53.384886,-2.261257
M22_M90,Manchester,England,53.382760,-2.262696
M23,Manchester,England,53.397122,-2.286579
M23_M90,Manchester,Other,53.391839,-2.284819
M24,Rochdale,England,53.552153,-2.198795
M25,Bury,England,53.533261,-2.279952
M26,Bury,England,53.562151,-2.333977
M27,Salford,England,53.512211,-2.338135
M28,Salford,England,53.516528,-2.398271
M29,Wigan,England,53.515058,-2.470398
M2_M4_M60_M61_M99,Manchester,England,53.483942,-2.234638
M2_M4_M60_M99,Manchester,England,53.483727,-2.235107
M3,Salford,England,53.483474,-2.252185
M30,Salford,England,53.475765,-2.367817
M31,Trafford,England,53.443248,-2.380396
M33,Trafford,England,53.422585,-2.324912
M34,Tameside,England,53.454806,-2.116039
M35,Oldham,England,53.497719,-2.152589
M38,Salford,England,53.529840,-2.420254
M40,Manchester,England,53.502761,-2.193764
M41,Trafford,England,53.451174,-2.362840
M43,Tameside,England,53.483183,-2.149300
M44,Salford,England,53.440712,-2.427123
M45,Bury,England,53.544863,-2.289827
M46,Wigan,England,53.525533,-2.492206
M5,Salford,England,53.479739,-2.285786
M50,Salford,England,53.476677,-2.289950
M6,Salford,England,53.491502,-2.295948
M7,Salford,England,53.504252,-2.261610
M8,Manchester,England,53.508967,-2.240871
M9,Manchester,England,53.521649,-2.214391
ME1,Medway,England,51.375598,0.499860
ME10,Swale,England,51.342706,0.735453
ME11_ME9,Swale,England,51.345451,0.726577
ME12,Swale,England,51.424631,0.798819
ME13,Swale,England,51.305115,0.894600
ME14,Maidstone,England,51.276367,0.538071
ME14_ME99,Maidstone,England,51.276447,0.537903
ME15,Maidstone,England,51.254977,0.532758
ME16,Maidstone,England,51.273361,0.499073
ME17,Maidstone,England,51.236638,0.603695
ME18,Maidstone,England,51.244407,0.422968
ME19,Tonbridge and Malling,England,51.293768,0.411243
ME2,Medway,England,51.391317,0.484714
ME20,Tonbridge and Malling,England,51.305949,0.458951
ME3,Medway,England,51.431375,0.546429
ME4,Medway,England,51.381133,0.527822
ME5,Medway,England,51.352127,0.531578
ME6,Tonbridge and Malling,England,51.324346,0.438847
ME7,Medway,England,51.380367,0.554814
ME8,Medway,England,51.362008,0.594892
MK10,Milton Keynes,England,52.037492,-0.695741
MK11,Milton Keynes,England,52.050008,-0.835711
MK12,Milton Keynes,England,52.057038,-0.817944
MK13,Milton Keynes,England,52.052235,-0.789564
MK14,Milton Keynes,England,52.059549,-0.768787
MK15_MK9,Milton Keynes,England,52.045330,-0.741909
MK16,Milton Keynes,England,52.088276,-0.721216
MK17,Buckinghamshire,England,51.998332,-0.699563
MK18,Buckinghamshire,England,51.980524,-0.970798
MK19,South Northamptonshire,England,52.071087,-0.851698
MK1_MK11_MK77,Milton Keynes,England,52.032803,-0.792475
MK1_MK7,Milton Keynes,England,52.015365,-0.706171
MK2,Milton Keynes,England,51.991884,-0.725565
MK3,Milton Keynes,England,51.995493,-0.750168
MK4,Milton Keynes,England,52.004918,-0.776781
MK40,Bedford,England,52.137343,-0.474412
MK41,Bedford,England,52.150422,-0.450561
MK42,Bedford,England,52.119641,-0.474023
MK43,Bedford,England,52.116712,-0.550577
MK44,Bedford,England,52.188235,-0.430320
MK45,Central Bedfordshire,England,52.029652,-0.472690
MK46,Milton Keynes,England,52.152749,-0.695983
MK5,Milton Keynes,England,52.019519,-0.776976
MK6,Milton Keynes,England,52.029209,-0.739299
MK7,Milton Keynes,Other,52.020583,-0.692582
MK8,Milton Keynes,England,52.036053,-0.808151
ML1,North Lanarkshire,Scotland,55.797549,-3.977268
ML10,South Lanarkshire,Scotland,55.684574,-4.062033
ML11,South Lanarkshire,Scotland,55.666239,-3.788755
ML12,South Lanarkshire,Scotland,55.573006,-3.588944
ML2,North Lanarkshire,Scotland,55.776722,-3.915379
ML3,South Lanarkshire,Scotland,55.771147,-4.052914
ML4,North Lanarkshire,Scotland,55.818719,-4.021396
ML5,North Lanarkshire,Scotland,55.859617,-4.030732
ML6,North Lanarkshire,Scotland,55.867720,-3.963131
ML7,North Lanarkshire,Scotland,55.829792,-3.795902
ML8,South Lanarkshire,Scotland,55.727826,-3.837916
ML9,South Lanarkshire,Scotland,55.725575,-3.968317
N1,Islington,England,51.537577,-0.098235
N10,Haringey,England,51.593890,-0.144264
N11,Barnet,England,51.614058,-0.138120
N12,Barnet,England,51.615335,-0.178448
N13,Enfield,England,51.621038,-0.103681
N14,Enfield,England,51.633307,-0.129990
N15,Haringey,England,51.580875,-0.085608
N16,Hackney,England,51.564305,-0.076805
N17,Haringey,England,51.597454,-0.071145
N18,Enfield,England,51.613672,-0.064799
N19,Islington,England,51.565434,-0.128293
N1C_NW1,Camden,England,51.532361,-0.142433
N1C_NW1_NW1W,Camden,England,51.531963,-0.140666
N1_N1P,Islington,England,51.537839,-0.099199
N2,Barnet,England,51.590289,-0.168646
N20,Barnet,England,51.629561,-0.174769
N21,Enfield,England,51.635533,-0.099598
N22,Haringey,England,51.599985,-0.114064
N3,Barnet,England,51.600412,-0.194105
N4,Haringey,England,51.570957,-0.104134
N5,Islington,England,51.553777,-0.098591
N6,Haringey,England,51.571497,-0.140834
N7,Islington,England,51.553809,-0.118025
N8,Haringey,England,51.582359,-0.120122
N8_N81,Haringey,England,51.582333,-0.119880
N9,Enfield,England,51.627844,-0.058796
NE1,Newcastle upon Tyne,England,54.972504,-1.613034
NE10,Gateshead,England,54.948408,-1.556974
NE11,Gateshead,England,54.940091,-1.631763
NE12,North Tyneside,England,55.025552,-1.569955
NE13,Newcastle upon Tyne,England,55.042108,-1.647263
NE15,Newcastle upon Tyne,England,54.983205,-1.719096
NE16,Gateshead,England,54.935031,-1.693349
NE17_NE39,Gateshead,England,54.922261,-1.779327
NE18_NE43_NE44_NE45,Northumberland,England,54.968183,-1.947795
NE19_NE48_NE49,Northumberland,England,55.090318,-2.290169
NE1_NE99,Newcastle upon Tyne,England,54.970752,-1.613723
NE2,Newcastle upon Tyne,England,54.986231,-1.606438
NE20,Northumberland,England,55.051872,-1.778706
NE21,Gateshead,England,54.958793,-1.719725
NE22,Northumberland,England,55.137315,-1.583631
NE23,Northumberland,England,55.083732,-1.584574
NE24,Northumberland,England,55.122835,-1.521375
NE25,North Tyneside,England,55.049087,-1.488479
NE26,North Tyneside,England,55.047646,-1.460868
NE27,North Tyneside,England,55.030973,-1.511806
NE28,North Tyneside,England,55.000668,-1.518864
NE29,North Tyneside,England,55.011752,-1.469348
NE3,Newcastle upon Tyne,England,55.009859,-1.633590
NE30,North Tyneside,England,55.019803,-1.442879
NE31,South Tyneside,England,54.971691,-1.512548
NE32,South Tyneside,England,54.969654,-1.484404
NE33,South Tyneside,England,54.992053,-1.431248
NE34,South Tyneside,England,54.972778,-1.423204
NE35,South Tyneside,England,54.952910,-1.462824
NE36,South Tyneside,England,54.947119,-1.442829
NE37,Sunderland,England,54.911424,-1.528380
NE37_NE85,Sunderland,Other,54.911839,-1.530094
NE38,Sunderland,Other,54.895051,-1.525809
NE38_NE85,Sunderland,England,54.895730,-1.527300
NE4,Newcastle upon Tyne,England,54.972768,-1.643796
NE40,Gateshead,England,54.966059,-1.770398
NE41_NE42,Northumberland,England,54.965127,-1.847349
NE46,Northumberland,England,54.977980,-2.104475
NE47,Northumberland,England,54.930088,-2.247462
NE5,Newcastle upon Tyne,England,54.995415,-1.688481
NE6,Newcastle upon Tyne,England,54.977214,-1.567389
NE61,Northumberland,England,55.177654,-1.686891
NE62,Northumberland,England,55.161329,-1.592834
NE63,Northumberland,England,55.177425,-1.562024
NE64,Northumberland,England,55.184038,-1.516648
NE65,Northumberland,England,55.310745,-1.742146
NE66,Northumberland,England,55.426724,-1.727049
NE67_NE68_NE69_NE70,Northumberland,England,55.570323,-1.726350
NE71_TD12,Northumberland,England,55.609580,-2.154760
NE7_NE88,Newcastle upon Tyne,England,54.995864,-1.580600
NE7_NE98,Newcastle upon Tyne,England,54.996551,-1.580307
NE8,Gateshead,England,54.956301,-1.605025
NE9,Gateshead,England,54.931650,-1.587691
NG1,Nottingham,England,52.954603,-1.147690
NG10,Erewash,England,52.899858,-1.282203
NG11_NG80,Nottingham,England,52.901739,-1.175114
NG12,Rushcliffe,England,52.910399,-1.059638
NG13,Rushcliffe,England,52.947830,-0.929388
NG14,Gedling,England,53.013423,-1.041532
NG15,Ashfield,England,53.045265,-1.202727
NG16,Broxtowe,England,53.026566,-1.298237
NG17,Ashfield,England,53.115933,-1.261178
NG18,Mansfield,England,53.140769,-1.185911
NG19,Mansfield,England,53.160043,-1.197944
NG2,Rushcliffe,England,52.936986,-1.136757
NG20,Bolsover,England,53.208292,-1.185237
NG21,Newark and Sherwood,England,53.141602,-1.108074
NG22,Newark and Sherwood,England,53.177328,-0.969999
NG23,Newark and Sherwood,England,53.113619,-0.801204
NG24,Newark and Sherwood,England,53.070974,-0.802007
NG25,Newark and Sherwood,England,53.074063,-0.950891
NG3,Nottingham,England,52.967811,-1.130293
NG31,South Kesteven,England,52.913361,-0.641497
NG32,South Kesteven,England,52.946937,-0.651309
NG33,South Kesteven,England,52.820910,-0.584196
NG34,North Kesteven,England,52.987717,-0.395318
NG4,Gedling,England,52.970928,-1.086941
NG5,Nottingham,England,52.996908,-1.143502
NG6,Nottingham,England,52.997247,-1.191614
NG7_NG90,Nottingham,England,52.957898,-1.178619
NG8,Nottingham,England,52.963666,-1.214651
NG9,Broxtowe,England,52.926295,-1.233166
NN1,Northampton,England,52.241474,-0.891060
NN10,East Northamptonshire,England,52.292947,-0.599135
NN11,Daventry,England,52.243768,-1.174377
NN12,South Northamptonshire,England,52.127821,-0.996122
NN13,South Northamptonshire,England,52.032620,-1.147423
NN14,Kettering,England,52.411177,-0.706425
NN15,Kettering,England,52.383970,-0.705974
NN16,Kettering,England,52.403398,-0.704677
NN17,Corby,England,52.499887,-0.684008
NN18,Corby,England,52.479190,-0.710470
NN2,Northampton,England,52.259513,-0.885299
NN29,Wellingborough,England,52.262721,-0.665386
NN3,Northampton,England,52.262517,-0.843973
NN4,Northampton,England,52.221291,-0.897749
NN5,Northampton,England,52.245705,-0.931235
NN6,Daventry,England,52.320522,-0.946524
NN7,South Northamptonshire,England,52.214866,-0.919715
NN8,Wellingborough,England,52.297679,-0.692608
NN9,East Northamptonshire,England,52.312214,-0.616125
NP10,Newport,Wales,51.580081,-3.043081
NP11,Caerphilly,Wales,51.644224,-3.131684
NP12,Caerphilly,Wales,51.668752,-3.197772
NP13,Blaenau Gwent,Wales,51.735255,-3.141091
NP15,Monmouthshire,Wales,51.723257,-2.889186
NP16,Monmouthshire,Wales,51.648965,-2.687116
NP18,Newport,Wales,51.604968,-2.943050
NP19,Newport,Wales,51.586980,-2.962577
NP20,Newport,Wales,51.590181,-3.004590
NP22,Blaenau Gwent,Wales,51.771221,-3.257678
NP23,Blaenau Gwent,Wales,51.784600,-3.197876
NP25,Monmouthshire,Wales,51.804200,-2.722888
NP26,Monmouthshire,Wales,51.590490,-2.775815
NP4,Torfaen,Wales,51.693107,-3.039590
NP44,Torfaen,Wales,51.651311,-3.027603
NP7,Monmouthshire,Wales,51.828359,-3.012226
NP8,Powys,Wales,51.857623,-3.141208
NR1,Norwich,England,52.628931,1.308688
NR10,Broadland,England,52.735912,1.244500
NR11,North Norfolk,England,52.840264,1.275083
NR12,North Norfolk,England,52.757960,1.466539
NR13,Broadland,England,52.633878,1.469206
NR14,South Norfolk,England,52.565407,1.375434
NR15,South Norfolk,England,52.505903,1.267096
NR16,Breckland,England,52.478782,1.056020
NR17,Breckland,England,52.515392,0.996240
NR18,South Norfolk,England,52.571065,1.108770
NR19,Breckland,England,52.676017,0.931415
NR1_NR99,Norwich,England,52.628912,1.308692
NR2,Norwich,England,52.630791,1.285209
NR20,Breckland,England,52.721919,0.978558
NR21,North Norfolk,England,52.840156,0.850746
NR22_NR23_NR24_NR25,North Norfolk,England,52.911726,1.011872
NR26,North Norfolk,England,52.937514,1.211442
NR27,North Norfolk,England,52.925022,1.299844
NR28,North Norfolk,England,52.822142,1.396705
NR29,Great Yarmouth,England,52.689180,1.642054
NR3,Norwich,England,52.643366,1.294989
NR30,Great Yarmouth,England,52.617759,1.727094
NR31,Great Yarmouth,England,52.577170,1.709654
NR32,East Suffolk,England,52.487834,1.733299
NR33,East Suffolk,England,52.455729,1.718359
NR34,East Suffolk,England,52.439552,1.582672
NR35,East Suffolk,England,52.461570,1.432950
NR4,Norwich,England,52.614293,1.261606
NR5,Norwich,England,52.641296,1.237108
NR6,Broadland,England,52.660903,1.283267
NR7,Broadland,England,52.645159,1.333155
NR8,Broadland,England,52.676489,1.207730
NR9,South Norfolk,England,52.631471,1.109943
NW10,Brent,England,51.539238,-0.248868
NW10_NW26,Brent,England,51.538862,-0.246182
NW11,Barnet,England,51.578712,-0.198404
NW2,Brent,England,51.559326,-0.218454
NW3,Camden,England,51.552573,-0.173182
NW4,Barnet,England,51.587403,-0.223788
NW5,Camden,England,51.551605,-0.144599
NW6,Camden,England,51.540288,-0.195622
NW7,Barnet,England,51.615064,-0.236688
NW8,Westminster,England,51.531722,-0.174471
NW9,Barnet,England,51.586557,-0.253931
OL1,Oldham,England,53.546974,-2.106250
OL10,Rochdale,England,53.590443,-2.222745
OL11,Rochdale,England,53.606328,-2.174043
OL12,Rochdale,England,53.634434,-2.165367
OL13,Rossendale,England,53.700811,-2.204231
OL14,Calderdale,England,53.714252,-2.100821
OL15,Rochdale,England,53.643572,-2.102647
OL16,Rochdale,England,53.613338,-2.138388
OL1_OL95,Oldham,England,53.547111,-2.106238
OL2,Oldham,England,53.571296,-2.109450
OL3,Oldham,England,53.552623,-2.011426
OL4,Oldham,England,53.542362,-2.075817
OL5,Tameside,England,53.516701,-2.040800
OL6,Tameside,England,53.492573,-2.088461
OL7,Tameside,England,53.489380,-2.106202
OL8,Oldham,England,53.527065,-2.117246
OL9,Oldham,England,53.538930,-2.141686
OX1,Oxford,England,51.746865,-1.262217
OX10,South Oxfordshire,England,51.605810,-1.129501
OX11,South Oxfordshire,England,51.599949,-1.250335
OX12,Vale of White Horse,England,51.595272,-1.425500
OX13,Vale of White Horse,England,51.676922,-1.349018
OX14,Vale of White Horse,England,51.667677,-1.278502
OX15,Cherwell,England,52.033034,-1.402926
OX16,Cherwell,England,52.063582,-1.338900
OX17,South Northamptonshire,England,52.072417,-1.292310
OX18,West Oxfordshire,England,51.762275,-1.592552
OX2,Oxford,England,51.763078,-1.277517
OX20,West Oxfordshire,England,51.854666,-1.357197
OX25,Cherwell,England,51.900282,-1.207317
OX26,Cherwell,England,51.901316,-1.151040
OX27,Cherwell,England,51.934140,-1.150099
OX28,West Oxfordshire,England,51.784516,-1.485741
OX29,West Oxfordshire,England,51.793216,-1.438557
OX3,Oxford,England,51.760232,-1.215560
OX33,South Oxfordshire,England,51.756752,-1.143703
OX39_OX49,South Oxfordshire,England,51.677442,-0.958020
OX4,Oxford,England,51.728758,-1.214281
OX44,South Oxfordshire,England,51.701140,-1.135522
OX5,Cherwell,England,51.860715,-1.293569
OX7,West Oxfordshire,England,51.898435,-1.494723
OX9,South Oxfordshire,England,51.702804,-1.040820
PA1,Renfrewshire,Scotland,55.844895,-4.419899
PA10_PA12_PA9,Renfrewshire,Scotland,55.814890,-4.575374
PA11,Renfrewshire,Scotland,55.857188,-4.584059
PA13_PA14,Inverclyde,Scotland,55.915692,-4.653471
PA13_PA15_PA18,Inverclyde,Other,55.929208,-4.730064
PA14,Inverclyde,Other,55.928342,-4.666930
PA15,Inverclyde,Scotland,55.942880,-4.747122
PA16,Inverclyde,Other,55.942725,-4.798009
PA16_PA18,Inverclyde,Scotland,55.938960,-4.804035
PA19,Inverclyde,Scotland,55.952428,-4.821304
PA2,Renfrewshire,Scotland,55.829615,-4.434925
PA20,Argyll and Bute,Scotland,55.834352,-5.056981
PA21_PA22_PA24_PA25_PA26_PA27_PA32_PA33_PA35_PA36_PA37_PA38,Argyll and Bute,Scotland,56.295402,-5.204262
PA23,Argyll and Bute,Scotland,55.954004,-4.933200
PA29_PA30_PA31_PA41_PA42_PA43_PA44_PA45_PA46_PA47_PA48_PA49_PA60,Argyll and Bute,Scotland,55.898389,-5.741251
PA3,Renfrewshire,Scotland,55.851392,-4.444059
PA31_PA42_PA43_PA44_PA45_PA46_PA47_PA48_PA49_PA60_PA61,Argyll and Bute,Other,55.908792,-5.822507
PA34_PA61_PA62_PA63_PA64_PA65_PA66_PA67_PA68_PA69_PA70_PA71_PA72_PA73_PA74_PA75_PA76_PA77_PA78,Argyll and Bute,Scotland,56.426924,-5.723595
PA34_PA62_PA63_PA64_PA65_PA66_PA67_PA68_PA69_PA70_PA71_PA72_PA73_PA74_PA75_PA76_PA77_PA78,Argyll and Bute,Other,56.430938,-5.718152
PA4,Renfrewshire,Scotland,55.875274,-4.395837
PA5,Renfrewshire,Scotland,55.831426,-4.509908
PA6,Renfrewshire,Scotland,55.862979,-4.534388
PA7,Renfrewshire,Scotland,55.907423,-4.501147
PA8,Renfrewshire,Scotland,55.901439,-4.453735
PA80_PH33,Highland,Scotland,56.814717,-5.222064
PE1,Peterborough,England,52.590884,-0.248088
PE10,South Kesteven,England,52.773834,-0.377744
PE11,South Holland,England,52.805907,-0.163948
PE12,South Holland,England,52.786011,0.018543
PE13,Fenland,England,52.668969,0.139732
PE14,King's Lynn and West Norfolk,England,52.639079,0.201768
PE15,Fenland,England,52.538835,0.085824
PE16,Fenland,England,52.454731,0.049273
PE19,Huntingdonshire,England,52.236752,-0.263536
PE2,Peterborough,England,52.567317,-0.273764
PE20,Boston,England,52.932971,-0.101799
PE21,Boston,England,52.974819,-0.023581
PE22,East Lindsey,England,53.047338,0.041993
PE23,East Lindsey,England,53.172656,0.090613
PE24,East Lindsey,England,53.164473,0.268128
PE25,East Lindsey,England,53.152162,0.334607
PE26,Huntingdonshire,England,52.453009,-0.115030
PE27,Huntingdonshire,England,52.330814,-0.075600
PE28,Huntingdonshire,England,52.357805,-0.189741
PE29,Huntingdonshire,England,52.334491,-0.180994
PE3,Peterborough,Other,52.586263,-0.277345
PE30,King's Lynn and West Norfolk,England,52.758741,0.413446
PE31_PE35,King's Lynn and West Norfolk,England,52.874664,0.563411
PE32,King's Lynn and West Norfolk,England,52.729182,0.622398
PE33,King's Lynn and West Norfolk,England,52.651760,0.461898
PE34,King's Lynn and West Norfolk,England,52.726925,0.342689
PE36,King's Lynn and West Norfolk,England,52.938115,0.505811
PE37,Breckland,England,52.643736,0.692922
PE38,King's Lynn and West Norfolk,England,52.591738,0.376152
PE3_PE5,Peterborough,England,52.585779,-0.281333
PE4,Peterborough,England,52.612098,-0.265373
PE5_PE6,South Kesteven,Other,52.650512,-0.262541
PE6,South Kesteven,England,52.654442,-0.258031
PE7,Fenland,England,52.539648,-0.204556
PE8,East Northamptonshire,England,52.526613,-0.441957
PE9,South Kesteven,England,52.653759,-0.478575
PH1,Perth and Kinross,Scotland,56.418160,-3.472510
PH10,Perth and Kinross,Scotland,56.605747,-3.357189
PH11_PH12,Perth and Kinross,Scotland,56.619213,-3.210730
PH13_PH14,Perth and Kinross,Scotland,56.514345,-3.252319
PH15_PH16_PH17_PH18,Perth and Kinross,Other,56.673457,-3.876707
PH15_PH16_PH17_PH18_PH8_PH9,Perth and Kinross,Scotland,56.651291,-3.811346
PH19_PH21_PH30_PH34_PH36_PH37_PH38_PH39_PH40_PH41_PH49_PH50,Highland,Scotland,56.904704,-4.933353
PH2,Perth and Kinross,Scotland,56.385949,-3.408673
PH21_PH22,Highland,Other,57.149141,-3.907408
PH3,Perth and Kinross,Scotland,56.301328,-3.705364
PH33,Highland,Other,56.815630,-5.086429
PH5_PH6_PH8_PH9,Perth and Kinross,Other,56.479684,-3.778542
PH7,Perth and Kinross,Scotland,56.373379,-3.829536
PL1,Plymouth,England,50.370188,-4.148534
PL10_PL11,Cornwall,England,50.364446,-4.239078
PL12,Cornwall,England,50.418295,-4.246863
PL13,Cornwall,England,50.358819,-4.472856
PL14,Cornwall,England,50.462613,-4.466089
PL15,Cornwall,England,50.632278,-4.394039
PL16_PL19,West Devon,England,50.566366,-4.168779
PL17,Cornwall,England,50.514812,-4.306185
PL18,Cornwall,England,50.515562,-4.223803
PL1_PL95,Plymouth,Other,50.370113,-4.147622
PL2,Plymouth,England,50.386886,-4.156946
PL20,West Devon,England,50.503764,-4.100486
PL21,South Hams,England,50.385410,-3.919444
PL22_PL23,Cornwall,England,50.373626,-4.645563
PL24,Cornwall,England,50.354562,-4.713004
PL25,Cornwall,England,50.341036,-4.776958
PL26,Cornwall,England,50.345520,-4.824383
PL27_PL28,Cornwall,England,50.525519,-4.896432
PL29_PL30,Cornwall,England,50.507442,-4.736933
PL3,Plymouth,England,50.385971,-4.125695
PL31,Cornwall,England,50.469072,-4.722159
PL32_PL33_PL34_PL35,Cornwall,England,50.646151,-4.697056
PL4,Plymouth,England,50.374675,-4.127480
PL5,Plymouth,England,50.410919,-4.167024
PL6,Plymouth,England,50.418362,-4.119050
PL7,Plymouth,England,50.390880,-4.045925
PL8,South Hams,England,50.337746,-4.018466
PL9,Plymouth,Other,50.355665,-4.089370
PL9_PL95,Plymouth,England,50.355987,-4.089814
PO1,Portsmouth,England,50.799342,-1.089930
PO10,Havant,England,50.851533,-0.930638
PO11,Havant,England,50.791474,-0.977291
PO12,Gosport,England,50.798705,-1.142768
PO13,Gosport,England,50.811599,-1.179073
PO14,Fareham,England,50.839683,-1.212392
PO15,Fareham,England,50.863332,-1.221309
PO16,Fareham,England,50.850466,-1.162134
PO17,Winchester,England,50.887753,-1.174008
PO18,Chichester,England,50.862127,-0.813064
PO19,Chichester,England,50.836851,-0.777462
PO2,Portsmouth,England,50.815992,-1.078809
PO20,Chichester,England,50.795049,-0.771824
PO21,Arun,England,50.784831,-0.693627
PO22,Arun,England,50.798856,-0.649645
PO3,Portsmouth,England,50.815150,-1.061549
PO30,Isle of Wight,England,50.693395,-1.310116
PO31,Isle of Wight,England,50.752403,-1.306149
PO32,Isle of Wight,England,50.749737,-1.281579
PO33_PO34,Isle of Wight,England,50.720776,-1.163499
PO35_PO36,Isle of Wight,England,50.664602,-1.146249
PO37,Isle of Wight,England,50.632745,-1.178094
PO38,Isle of Wight,England,50.603519,-1.238359
PO39_PO40_PO41,Isle of Wight,England,50.686862,-1.513843
PO4,Portsmouth,England,50.790931,-1.064353
PO5,Portsmouth,England,50.789734,-1.086595
PO6,Portsmouth,England,50.846152,-1.069692
PO7,Havant,England,50.884421,-1.042049
PO8,East Hampshire,England,50.910878,-1.014609
PO9,Havant,England,50.862114,-0.982934
PR0_PR1,Preston,England,53.757874,-2.701732
PR0_PR1_PR11,Preston,Other,53.758608,-2.701142
PR11_PR2,Preston,England,53.775602,-2.704810
PR2,Preston,Other,53.775491,-2.705507
PR25,South Ribble,England,53.695431,-2.695390
PR26,South Ribble,England,53.688920,-2.737596
PR3,Wyre,England,53.867727,-2.717539
PR4,Fylde,England,53.752854,-2.831662
PR5,South Ribble,England,53.713213,-2.681303
PR6,Chorley,England,53.664614,-2.614495
PR7,Chorley,England,53.648722,-2.652787
PR8,Sefton,England,53.627655,-3.005517
PR9,Sefton,England,53.657019,-2.971895
RG1,Reading,England,51.451624,-0.970852
RG10,Wokingham,England,51.479973,-0.867397
RG12,Bracknell Forest,England,51.411903,-0.752732
RG14,West Berkshire,England,51.398273,-1.321341
RG17,West Berkshire,England,51.437841,-1.498304
RG18,West Berkshire,England,51.430992,-1.247543
RG19,West Berkshire,England,51.396448,-1.226002
RG2,Reading,England,51.424782,-0.956048
RG20,Basingstoke and Deane,England,51.403059,-1.334863
RG21,Basingstoke and Deane,England,51.266805,-1.090512
RG22,Basingstoke and Deane,England,51.252210,-1.122859
RG23,Basingstoke and Deane,England,51.260091,-1.146819
RG24,Basingstoke and Deane,England,51.279825,-1.078525
RG25,Basingstoke and Deane,England,51.235791,-1.085275
RG26,Basingstoke and Deane,England,51.348111,-1.128174
RG27,Hart,England,51.305432,-0.948656
RG28,Basingstoke and Deane,England,51.234840,-1.329179
RG29,Hart,England,51.248981,-0.947115
RG30,Reading,England,51.453182,-1.009466
RG31,West Berkshire,England,51.456578,-1.039936
RG4,Reading,England,51.477990,-0.965344
RG40,Wokingham,England,51.402649,-0.835753
RG41,Wokingham,England,51.415800,-0.857432
RG42,Bracknell Forest,England,51.424862,-0.760043
RG45,Bracknell Forest,England,51.378514,-0.802816
RG5,Wokingham,England,51.452874,-0.907417
RG6,Wokingham,England,51.442332,-0.933440
RG7,West Berkshire,England,51.397360,-1.081590
RG8,West Berkshire,England,51.505272,-1.106883
RG9,South Oxfordshire,England,51.542628,-0.920401
RH1,Reigate and Banstead,England,51.237896,-0.159113
RH10,Crawley,England,51.119354,-0.164563
RH10_RH77,Crawley,England,51.119462,-0.164592
RH11,Crawley,England,51.112324,-0.204864
RH12,Horsham,England,51.074712,-0.329539
RH13,Horsham,England,51.038447,-0.333037
RH14,Horsham,England,51.031461,-0.479818
RH15,Mid Sussex,England,50.956771,-0.135791
RH16,Mid Sussex,England,51.002889,-0.099847
RH17,Mid Sussex,England,51.020163,-0.118681
RH18_TN7,Wealden,England,51.097339,0.056619
RH19,Mid Sussex,England,51.125832,-0.013493
RH2,Reigate and Banstead,England,51.236667,-0.203265
RH20,Horsham,England,50.937371,-0.471710
RH3_RH5,Mole Valley,England,51.202479,-0.332106
RH4,Mole Valley,England,51.230682,-0.333909
RH6,Reigate and Banstead,England,51.171361,-0.165267
RH7,Tandridge,England,51.174451,-0.018332
RH8,Tandridge,England,51.252690,-0.000181
RH9,Tandridge,England,51.236922,-0.076663
RM1,Havering,England,51.580225,0.182045
RM10,Barking and Dagenham,England,51.545584,0.156567
RM11,Havering,England,51.569625,0.218006
RM12,Havering,England,51.554690,0.208776
RM13,Havering,England,51.523573,0.191915
RM14,Havering,England,51.556213,0.260765
RM15,Thurrock,England,51.508972,0.276991
RM16,Thurrock,England,51.488837,0.320292
RM17,Thurrock,England,51.479621,0.326056
RM18,Thurrock,England,51.467623,0.370370
RM19,Thurrock,England,51.482462,0.252314
RM2,Havering,England,51.582520,0.199326
RM20,Thurrock,England,51.478725,0.286842
RM3,Havering,England,51.602104,0.224255
RM5,Havering,England,51.598140,0.165322
RM6,Redbridge,England,51.574993,0.133658
RM7,Havering,England,51.573338,0.169615
RM8,Barking and Dagenham,England,51.557163,0.130818
RM9,Barking and Dagenham,England,51.543872,0.136522
S1,Sheffield,England,53.380614,-1.469473
S10,Sheffield,England,53.377074,-1.516893
S11,Sheffield,England,53.360655,-1.508074
S12,Sheffield,England,53.349760,-1.409040
S13,Sheffield,England,53.364780,-1.384483
S14,Sheffield,England,53.347121,-1.444896
S17,Sheffield,England,53.322542,-1.526086
S18,North East Derbyshire,England,53.299535,-1.473156
S2,Sheffield,England,53.371460,-1.450807
S20,Sheffield,England,53.334246,-1.349689
S21,North East Derbyshire,England,53.313116,-1.339826
S25,Rotherham,England,53.367618,-1.219901
S26,Rotherham,England,53.355364,-1.287522
S3,Sheffield,England,53.386799,-1.473034
S32,Derbyshire Dales,England,53.294837,-1.644772
S33_SK22,High Peak,England,53.364549,-1.915262
S35,Sheffield,England,53.458094,-1.495170
S36,Barnsley,England,53.505211,-1.616127
S4,Sheffield,England,53.397709,-1.451493
S40_S49,Chesterfield,England,53.234605,-1.443354
S41,Chesterfield,England,53.246633,-1.428939
S42,North East Derbyshire,England,53.201784,-1.423045
S43,Chesterfield,England,53.268363,-1.340037
S44,Bolsover,England,53.225721,-1.312752
S45,North East Derbyshire,England,53.167443,-1.421506
S4_S96_S97_S98_S99,Sheffield,England,53.405859,-1.436623
S5,Sheffield,England,53.422318,-1.462205
S6,Sheffield,England,53.402363,-1.509364
S60,Rotherham,England,53.416813,-1.352500
S61,Rotherham,England,53.443018,-1.392906
S61_S95,Rotherham,England,53.441795,-1.393664
S62,Rotherham,England,53.466218,-1.345220
S63,Barnsley,England,53.517095,-1.329967
S64,Doncaster,England,53.491353,-1.299830
S65,Rotherham,England,53.436112,-1.321821
S66,Rotherham,England,53.421315,-1.251520
S7,Sheffield,England,53.354697,-1.489902
S70,Barnsley,England,53.543698,-1.476616
S71,Barnsley,England,53.573259,-1.457358
S72,Barnsley,England,53.577588,-1.394379
S73,Barnsley,England,53.524245,-1.395576
S74,Barnsley,England,53.501763,-1.440551
S75,Barnsley,England,53.561758,-1.519012
S8,Sheffield,England,53.342762,-1.479358
S80,Bassetlaw,England,53.294948,-1.146634
S81,Bassetlaw,England,53.336774,-1.123830
S9,Sheffield,England,53.396786,-1.420998
SA1,Swansea,Wales,51.629108,-3.938692
SA10,Neath Port Talbot,Wales,51.686123,-3.801251
SA11,Neath Port Talbot,Wales,51.673867,-3.766267
SA12,Neath Port Talbot,Wales,51.607382,-3.794911
SA13,Neath Port Talbot,Wales,51.604337,-3.737107
SA14,Carmarthenshire,Wales,51.731693,-4.109270
SA15,Carmarthenshire,Wales,51.696907,-4.167339
SA16,Carmarthenshire,Wales,51.689056,-4.254260
SA17,Carmarthenshire,Wales,51.755132,-4.285909
SA18,Carmarthenshire,Wales,51.797469,-3.962907
SA19_SA20,Carmarthenshire,Wales,51.962069,-3.915760
SA2,Swansea,Wales,51.621554,-3.991029
SA3,Swansea,Wales,51.581836,-4.042372
SA31,Carmarthenshire,Wales,51.856139,-4.309092
SA32_SA39,Carmarthenshire,Wales,51.917261,-4.189230
SA33_SA38,Carmarthenshire,Wales,51.895312,-4.442241
SA34,Carmarthenshire,Wales,51.850887,-4.618382
SA35_SA36_SA37_SA41_SA42,Pembrokeshire,Wales,52.004363,-4.727647
SA4,Swansea,Wales,51.676153,-4.042786
SA40_SA48_SY25,Ceredigion,Wales,52.161689,-4.068338
SA43,Ceredigion,Wales,52.086674,-4.632117
SA44,Ceredigion,Wales,52.083455,-4.369605
SA45_SA46_SA47,Ceredigion,Wales,52.213182,-4.292440
SA5,Swansea,Wales,51.648662,-3.969054
SA6,Swansea,Wales,51.674831,-3.921443
SA61,Pembrokeshire,Wales,51.799245,-4.974336
SA62,Pembrokeshire,Wales,51.839043,-5.059882
SA63_SA64_SA65_SA66,Pembrokeshire,Wales,51.941629,-4.897382
SA67,Pembrokeshire,Wales,51.785084,-4.734139
SA68_SA69,Pembrokeshire,Wales,51.720043,-4.735017
SA6_SA99,Swansea,Wales,51.674493,-3.923121
SA7,Swansea,Wales,51.663144,-3.894062
SA70,Pembrokeshire,Wales,51.672108,-4.734480
SA71,Pembrokeshire,Wales,51.669480,-4.933267
SA72,Pembrokeshire,Wales,51.692047,-4.937140
SA73,Pembrokeshire,Wales,51.717662,-5.015641
SA7_SA80,Swansea,Wales,51.662862,-3.894621
SA8,Neath Port Talbot,Wales,51.721595,-3.847161
SA9,Powys,Wales,51.780759,-3.770691
SE1,Southwark,England,51.498192,-0.090317
SE10,Greenwich,England,51.484153,0.000872
SE11,Lambeth,England,51.489517,-0.109055
SE12,Lewisham,England,51.446071,0.026118
SE13,Lewisham,England,51.459297,-0.010489
SE14,Lewisham,England,51.475473,-0.043115
SE15,Southwark,England,51.472738,-0.067060
SE16,Southwark,England,51.496531,-0.054923
SE16_SE1P,Southwark,England,51.495463,-0.062095
SE17,Southwark,England,51.488513,-0.094704
SE18,Greenwich,England,51.485424,0.071180
SE19,Croydon,England,51.418238,-0.085204
SE2,Greenwich,England,51.491146,0.114389
SE20,Bromley,England,51.413043,-0.058122
SE21,Lambeth,England,51.438318,-0.088484
SE22,Southwark,England,51.454601,-0.072575
SE23,Lewisham,England,51.440149,-0.050085
SE24,Lambeth,England,51.456918,-0.100266
SE25,Croydon,England,51.398108,-0.077492
SE26,Lewisham,England,51.427804,-0.054313
SE27,Lambeth,England,51.430372,-0.101624
SE28,Greenwich,England,51.501201,0.104340
SE3,Greenwich,England,51.468603,0.017590
SE4,Lewisham,England,51.461723,-0.035422
SE5,Southwark,England,51.474101,-0.092897
SE6,Lewisham,England,51.438563,-0.017567
SE7,Greenwich,England,51.485234,0.031835
SE8,Lewisham,England,51.481662,-0.028890
SE9,Greenwich,England,51.446097,0.054592
SG1,Stevenage,England,51.909058,-0.197540
SG10_SG11,East Hertfordshire,England,51.869234,0.034541
SG12,East Hertfordshire,England,51.812889,-0.018066
SG13,East Hertfordshire,England,51.789906,-0.072105
SG14,East Hertfordshire,England,51.805743,-0.090836
SG15,Central Bedfordshire,England,52.011499,-0.262290
SG16,Central Bedfordshire,England,52.013524,-0.299219
SG17,Central Bedfordshire,England,52.035013,-0.335205
SG18,Central Bedfordshire,England,52.082577,-0.264079
SG19,Central Bedfordshire,England,52.138441,-0.246773
SG2,Stevenage,England,51.896537,-0.169435
SG3,North Hertfordshire,England,51.861397,-0.182478
SG4,North Hertfordshire,England,51.925284,-0.261295
SG5,North Hertfordshire,England,51.965087,-0.278582
SG6,North Hertfordshire,England,51.979442,-0.220913
SG7,North Hertfordshire,England,52.001595,-0.178731
SG8,North Hertfordshire,England,52.064643,-0.014861
SG9,East Hertfordshire,England,51.940001,-0.010482
SK1,Stockport,England,53.408165,-2.153782
SK10,Cheshire East,England,53.273615,-2.129870
SK11,Cheshire East,England,53.247659,-2.142484
SK12,Cheshire East,England,53.350130,-2.018030
SK13,High Peak,England,53.447598,-1.963542
SK14,Tameside,England,53.452979,-2.046800
SK15,Tameside,England,53.486465,-2.050298
SK16,Tameside,England,53.472845,-2.082436
SK17,High Peak,England,53.246997,-1.884116
SK2,Stockport,England,53.396263,-2.137723
SK23,High Peak,England,53.328074,-1.946120
SK3,Stockport,England,53.399890,-2.170803
SK4,Stockport,England,53.417392,-2.178813
SK5,Stockport,England,53.432473,-2.153756
SK6,Stockport,England,53.405765,-2.081804
SK7,Stockport,England,53.369270,-2.144380
SK8,Stockport,England,53.381320,-2.208846
SK9,Cheshire East,England,53.326669,-2.231077
SL0,Buckinghamshire,England,51.522727,-0.516490
SL1,Slough,England,51.515975,-0.614379
SL2,Slough,England,51.532677,-0.602793
SL3,Slough,England,51.500543,-0.557756
SL3_SL95,Slough,England,51.500522,-0.557478
SL4,Windsor and Maidenhead,England,51.476719,-0.623891
SL5,Windsor and Maidenhead,England,51.404832,-0.662129
SL6,Windsor and Maidenhead,England,51.522908,-0.726487
SL6_SL60,Windsor and Maidenhead,England,51.522710,-0.725956
SL7,Buckinghamshire,England,51.574355,-0.777775
SL8,Buckinghamshire,England,51.577845,-0.708869
SL9,Buckinghamshire,England,51.595498,-0.555624
SM1,Sutton,England,51.364845,-0.193061
SM2,Sutton,England,51.353221,-0.197811
SM3,Sutton,England,51.369955,-0.214267
SM4,Merton,England,51.392987,-0.200188
SM5,Sutton,England,51.366744,-0.165718
SM6,Sutton,England,51.360973,-0.146392
SM7,Reigate and Banstead,England,51.322814,-0.202034
SN1,Swindon,England,51.556650,-1.775471
SN10,Wiltshire,England,51.339281,-1.988117
SN11,Wiltshire,England,51.439488,-1.999761
SN12,Wiltshire,England,51.372745,-2.137582
SN13,Wiltshire,England,51.426441,-2.207566
SN14,Wiltshire,England,51.465959,-2.198636
SN15,Wiltshire,England,51.470848,-2.090883
SN16,Wiltshire,England,51.589329,-2.081103
SN2,Swindon,England,51.579736,-1.778456
SN25,Swindon,England,51.594695,-1.803424
SN26_SN38_SN6,Swindon,Other,51.600976,-1.758410
SN26_SN6,Swindon,England,51.614622,-1.748128
SN2_SN99,Swindon,England,51.579414,-1.778005
SN3,Swindon,England,51.560130,-1.743271
SN38_SN5,Swindon,England,51.566520,-1.831761
SN4,Wiltshire,England,51.531828,-1.845069
SN5,Swindon,Other,51.567644,-1.839011
SN7,Vale of White Horse,England,51.650292,-1.567222
SN8,Wiltshire,England,51.409563,-1.693886
SN9,Wiltshire,England,51.329076,-1.782911
SO14,Southampton,England,50.907786,-1.396534
SO15,Southampton,England,50.916660,-1.425867
SO16,Southampton,England,50.934413,-1.432832
SO17,Southampton,England,50.925997,-1.397432
SO18,Southampton,England,50.923849,-1.366306
SO19,Southampton,England,50.902789,-1.357308
SO20,Test Valley,England,51.115023,-1.502529
SO21,Winchester,England,51.073433,-1.314405
SO22,Winchester,England,51.066128,-1.331810
SO23,Winchester,England,51.067162,-1.305806
SO23_SO25,Winchester,England,51.067165,-1.305751
SO24,Winchester,England,51.085240,-1.150473
SO30,Eastleigh,England,50.921106,-1.307185
SO30_SO97,Eastleigh,England,50.921594,-1.308160
SO31,Fareham,England,50.870093,-1.294390
SO32,Winchester,England,50.946682,-1.213882
SO40,New Forest,England,50.916782,-1.504294
SO41,New Forest,England,50.756021,-1.561301
SO42_SO43,New Forest,England,50.843510,-1.558223
SO45,New Forest,England,50.849572,-1.395082
SO50,Eastleigh,England,50.970751,-1.345522
SO51,Test Valley,England,50.994034,-1.500830
SO52,Test Valley,England,50.977619,-1.436237
SO53,Eastleigh,England,50.984241,-1.381163
SP1,Wiltshire,England,51.073716,-1.791138
SP10,Test Valley,England,51.210690,-1.483291
SP11,Test Valley,England,51.225932,-1.514104
SP2,Wiltshire,England,51.072425,-1.819174
SP3,Wiltshire,England,51.099651,-2.004997
SP4,Wiltshire,England,51.162386,-1.767030
SP5,Wiltshire,England,51.024315,-1.773391
SP6,New Forest,England,50.935448,-1.801251
SP7,Dorset,England,51.005331,-2.185939
SP8,Dorset,England,51.036803,-2.288567
SP9,Wiltshire,England,51.232928,-1.663616
SR1,Sunderland,England,54.906847,-1.381616
SR2,Sunderland,England,54.888595,-1.378655
SR3,Sunderland,England,54.877885,-1.416464
SR4,Sunderland,England,54.901544,-1.424740
SR5,Sunderland,England,54.921696,-1.422078
SR6,Sunderland,England,54.933919,-1.380784
SR7,County Durham,England,54.830852,-1.360556
SR8,County Durham,England,54.766584,-1.336567
SS0,Southend-on-Sea,England,51.545810,0.691401
SS1,Southend-on-Sea,England,51.539422,0.724299
SS11,Basildon,England,51.616300,0.535386
SS12,Basildon,England,51.605835,0.520830
SS13,Basildon,England,51.574903,0.507548
SS14,Basildon,England,51.574929,0.470382
SS15,Basildon,England,51.576865,0.429179
SS16,Basildon,England,51.563070,0.451808
SS17,Thurrock,England,51.521748,0.439497
SS1_SS22_SS99,Southend-on-Sea,England,51.542037,0.720809
SS2,Southend-on-Sea,Other,51.549986,0.715679
SS2_SS99,Southend-on-Sea,England,51.549504,0.714446
SS3,Southend-on-Sea,England,51.542156,0.789581
SS4,Rochford,England,51.591833,0.712633
SS5,Rochford,England,51.606798,0.649683
SS6,Rochford,England,51.587585,0.606486
SS7,Castle Point,England,51.563078,0.577719
SS8,Castle Point,England,51.522103,0.589454
SS9,Southend-on-Sea,England,51.553576,0.652161
ST1,Stoke-on-Trent,England,53.025191,-2.174643
ST10,Staffordshire Moorlands,England,52.988535,-1.966134
ST11,Staffordshire Moorlands,England,52.966960,-2.067940
ST12_ST15,Stafford,Other,52.906463,-2.154389
ST12_ST20,Stafford,England,52.851973,-2.226516
ST13,Staffordshire Moorlands,England,53.101451,-2.019848
ST14,East Staffordshire,England,52.903639,-1.869100
ST15,Stafford,England,52.898516,-2.151380
ST16,Stafford,England,52.810690,-2.120812
ST17,Stafford,England,52.789465,-2.101012
ST18,Stafford,England,52.814537,-2.083307
ST19,South Staffordshire,England,52.716001,-2.145023
ST2,Stoke-on-Trent,England,53.027112,-2.137187
ST20,Stafford,Other,52.798542,-2.254874
ST21,Stafford,England,52.868511,-2.262047
ST3,Stoke-on-Trent,England,52.981094,-2.122929
ST4,Stoke-on-Trent,England,52.997757,-2.183576
ST5_ST55,Newcastle-under-Lyme,England,53.015195,-2.239937
ST6,Stoke-on-Trent,England,53.056451,-2.191920
ST7,Newcastle-under-Lyme,England,53.088022,-2.267241
ST8,Staffordshire Moorlands,England,53.115413,-2.168651
ST9,Staffordshire Moorlands,England,53.049726,-2.103908
SW10,Kensington and Chelsea,England,51.483842,-0.183040
SW11,Wandsworth,England,51.466980,-0.164364
SW11_SW95,Wandsworth,England,51.467321,-0.163656
SW12,Wandsworth,England,51.446195,-0.149915
SW13,Richmond upon Thames,England,51.474454,-0.248924
SW14,Richmond upon Thames,England,51.466499,-0.266668
SW15,Wandsworth,England,51.457977,-0.225819
SW16,Lambeth,England,51.423560,-0.129567
SW17,Wandsworth,England,51.430217,-0.165157
SW18,Wandsworth,England,51.450485,-0.191557
SW19,Merton,England,51.422195,-0.205348
SW1A_SW1E_SW1H_SW1Y_W1D_W1F_W1J_WC2E_WC2N,Westminster,Other,51.508404,-0.134852
SW1A_SW1E_SW1H_W1A_W1B_W1C_W1K_W1S_W1W,Westminster,England,51.513209,-0.138805
SW1P,Westminster,England,51.488854,-0.133629
SW1V,Westminster,England,51.490692,-0.139436
SW1W,Westminster,England,51.493228,-0.147671
SW1X,Kensington and Chelsea,England,51.497460,-0.153414
SW1Y_WC2B_WC2E_WC2H_WC2N_WC2R,Camden,England,51.511505,-0.125979
SW2,Lambeth,England,51.450800,-0.120673
SW20,Merton,England,51.412447,-0.224068
SW3,Kensington and Chelsea,England,51.488334,-0.165044
SW4,Lambeth,England,51.461625,-0.137216
SW5,Kensington and Chelsea,England,51.489749,-0.189684
SW6,Hammersmith and Fulham,England,51.477397,-0.200514
SW7,Kensington and Chelsea,England,51.496486,-0.176536
SW8,Lambeth,England,51.476536,-0.132809
SW9,Lambeth,England,51.469086,-0.113675
SY1,Shropshire,England,52.719873,-2.743243
SY10,Shropshire,Wales,52.838961,-3.108775
SY11,Shropshire,England,52.867227,-3.031488
SY12,Shropshire,England,52.902323,-2.897082
SY13,Shropshire,England,52.953165,-2.689285
SY14,Cheshire West and Chester,England,53.027984,-2.762970
SY15,Powys,Wales,52.560480,-3.134116
SY16,Powys,Wales,52.520012,-3.312744
SY17_SY19_SY20,Powys,Wales,52.583690,-3.704291
SY2,Shropshire,England,52.706260,-2.731062
SY21,Powys,Wales,52.658314,-3.200990
SY22,Powys,Wales,52.758347,-3.181531
SY23_SY24,Ceredigion,Wales,52.395121,-4.051525
SY3,Shropshire,England,52.700288,-2.771129
SY4,Shropshire,England,52.794007,-2.752757
SY5,Shropshire,England,52.655349,-2.826895
SY5_SY99,Shropshire,England,52.655772,-2.826325
SY6_SY9,Shropshire,England,52.524187,-2.847398
SY7,Shropshire,England,52.426444,-2.882562
SY8,Shropshire,England,52.365421,-2.696920
TA1,Somerset West and Taunton,England,51.016322,-3.105654
TA10,South Somerset,England,51.033773,-2.826802
TA11,South Somerset,England,51.060129,-2.709230
TA12_TA13,South Somerset,England,50.961547,-2.789822
TA14_TA15_TA16_TA17,South Somerset,England,50.932163,-2.770685
TA18,South Somerset,England,50.882849,-2.788098
TA19,South Somerset,England,50.933987,-2.915428
TA2,Somerset West and Taunton,England,51.032842,-3.101897
TA20,South Somerset,England,50.873156,-2.961398
TA21,Somerset West and Taunton,England,50.977925,-3.242308
TA22_TA23,Somerset West and Taunton,England,51.116153,-3.429596
TA24,Somerset West and Taunton,England,51.184210,-3.507473
TA3,Somerset West and Taunton,England,50.994503,-3.041815
TA4,Somerset West and Taunton,England,51.071925,-3.265526
TA5,Sedgemoor,England,51.142668,-3.090781
TA6,Sedgemoor,England,51.125921,-3.001014
TA7,Sedgemoor,England,51.131033,-2.915188
TA8,Sedgemoor,England,51.243901,-2.994820
TA9,Sedgemoor,England,51.225949,-2.959214
TD1,Scottish Borders,Scotland,55.622691,-2.811058
TD10_TD11_TD3_TD4,Scottish Borders,Other,55.740187,-2.430136
TD11,Scottish Borders,Scotland,55.787301,-2.315139
TD13_TD14,Scottish Borders,Scotland,55.876883,-2.158276
TD15,Northumberland,England,55.750895,-2.013079
TD5,Scottish Borders,England,55.589111,-2.418743
TD6,Scottish Borders,Scotland,55.582895,-2.695367
TD7,Scottish Borders,Scotland,55.537914,-2.869666
TD8,Scottish Borders,Scotland,55.475968,-2.543352
TD9,Scottish Borders,England,55.399640,-2.777481
TF1,Telford and Wrekin,England,52.703194,-2.500652
TF10,Telford and Wrekin,England,52.768554,-2.386099
TF11,Shropshire,England,52.663885,-2.364207
TF12,Shropshire,England,52.612864,-2.480804
TF13_TF8,Shropshire,England,52.605720,-2.528777
TF2,Telford and Wrekin,England,52.696540,-2.440962
TF3,Telford and Wrekin,England,52.666020,-2.447221
TF3_WV99,Telford and Wrekin,England,52.668010,-2.437158
TF4,Telford and Wrekin,England,52.660942,-2.469308
TF5_TF6,Telford and Wrekin,England,52.728241,-2.549035
TF7,Telford and Wrekin,England,52.639391,-2.447264
TF9,Shropshire,England,52.898099,-2.472343
TN1,Tunbridge Wells,England,51.136939,0.268067
TN10,Tonbridge and Malling,England,51.210158,0.284264
TN11,Tonbridge and Malling,England,51.205792,0.267111
TN12,Tunbridge Wells,England,51.172983,0.437724
TN13,Sevenoaks,England,51.275001,0.186105
TN14,Sevenoaks,England,51.295018,0.163153
TN15,Sevenoaks,England,51.299016,0.267826
TN16,Bromley,England,51.297100,0.048456
TN17,Tunbridge Wells,England,51.095390,0.537413
TN18,Tunbridge Wells,England,51.045367,0.524473
TN19,Rother,England,51.004273,0.412796
TN2,Tunbridge Wells,England,51.126650,0.267674
TN20_TN5,Wealden,England,51.056656,0.326373
TN21,Wealden,England,50.960579,0.261054
TN22,Wealden,England,50.980149,0.097485
TN23,Ashford,England,51.140884,0.860957
TN24,Ashford,England,51.149733,0.885081
TN25,Ashford,England,51.143004,0.933063
TN26,Ashford,England,51.101537,0.804942
TN27,Ashford,England,51.165906,0.710217
TN28,Folkestone and Hythe,England,50.983555,0.949455
TN29,Folkestone and Hythe,England,50.992731,0.932837
TN3,Tunbridge Wells,England,51.124527,0.250277
TN30,Ashford,England,51.064118,0.695095
TN31_TN36,Rother,England,50.955352,0.696591
TN32,Rother,England,50.978813,0.487919
TN33,Rother,England,50.911855,0.477048
TN34,Hastings,England,50.862993,0.579848
TN35,Hastings,England,50.880023,0.609665
TN37,Hastings,England,50.870542,0.556274
TN38,Hastings,England,50.865125,0.544782
TN39,Rother,England,50.846031,0.453797
TN4,Tunbridge Wells,England,51.146970,0.258315
TN40,Rother,England,50.843871,0.480330
TN6,Wealden,England,51.053951,0.171720
TN8,Sevenoaks,England,51.195299,0.076123
TN9,Tonbridge and Malling,England,51.191281,0.278258
TQ1,Torbay,England,50.473512,-3.527497
TQ10_TQ11,South Hams,England,50.451298,-3.799662
TQ12,Teignbridge,England,50.529942,-3.610923
TQ13,Teignbridge,England,50.590843,-3.711601
TQ14,Teignbridge,England,50.549943,-3.506547
TQ2,Torbay,England,50.475793,-3.544766
TQ3,Torbay,England,50.443359,-3.574674
TQ4,Torbay,England,50.425272,-3.571816
TQ5,Torbay,England,50.392210,-3.522289
TQ6,South Hams,England,50.347824,-3.590498
TQ7_TQ8,South Hams,England,50.275694,-3.782474
TQ9,South Hams,England,50.420117,-3.690494
TR1,Cornwall,England,50.262015,-5.053658
TR10,Cornwall,England,50.166290,-5.118123
TR11,Cornwall,England,50.150517,-5.087831
TR12,Cornwall,England,50.044159,-5.184695
TR13,Cornwall,England,50.109412,-5.285793
TR14,Cornwall,England,50.211349,-5.296172
TR15,Cornwall,England,50.233057,-5.237043
TR16,Cornwall,England,50.233066,-5.222062
TR17_TR20,Cornwall,England,50.130272,-5.488710
TR18,Cornwall,England,50.117893,-5.541684
TR18_TR21_TR22_TR23_TR24_TR25,Cornwall,Other,50.101621,-5.606585
TR19,Cornwall,Other,50.101897,-5.626515
TR19_TR21_TR22_TR23_TR24_TR25,Cornwall,England,50.074386,-5.732459
TR2,Cornwall,England,50.254576,-4.956257
TR26,Cornwall,England,50.202934,-5.480055
TR27,Cornwall,England,50.182353,-5.407271
TR3,Cornwall,England,50.220351,-5.108074
TR4,Cornwall,England,50.283541,-5.131962
TR5_TR6,Cornwall,England,50.324075,-5.171104
TR7,Cornwall,England,50.413806,-5.076302
TR8,Cornwall,England,50.400599,-5.040550
TR9,Cornwall,England,50.414115,-4.941565
TS1,Middlesbrough,England,54.573087,-1.239576
TS10,Redcar and Cleveland,England,54.605785,-1.072011
TS11,Redcar and Cleveland,England,54.587990,-1.033888
TS12,Redcar and Cleveland,England,54.563421,-0.967179
TS13,Redcar and Cleveland,England,54.550505,-0.858561
TS14,Redcar and Cleveland,England,54.532283,-1.061912
TS15,Stockton-on-Tees,England,54.493657,-1.333659
TS16,Stockton-on-Tees,England,54.526146,-1.353715
TS17,Stockton-on-Tees,England,54.538899,-1.304992
TS18_TS2,Stockton-on-Tees,England,54.566214,-1.306262
TS19,Stockton-on-Tees,England,54.576077,-1.338577
TS20,Stockton-on-Tees,England,54.585449,-1.314423
TS21,County Durham,England,54.624006,-1.422362
TS22,Stockton-on-Tees,England,54.620339,-1.320184
TS23,Stockton-on-Tees,England,54.606498,-1.287014
TS24,Hartlepool,England,54.693754,-1.210712
TS25,Hartlepool,England,54.663475,-1.224072
TS26,Hartlepool,England,54.688372,-1.230632
TS27,County Durham,England,54.722478,-1.287903
TS28,County Durham,England,54.725470,-1.375028
TS29,County Durham,England,54.711227,-1.419955
TS3,Middlesbrough,England,54.561889,-1.198512
TS4,Middlesbrough,England,54.557190,-1.223736
TS5,Middlesbrough,England,54.552007,-1.252106
TS6,Redcar and Cleveland,England,54.567467,-1.156036
TS7,Middlesbrough,England,54.533140,-1.186574
TS8,Middlesbrough,England,54.521650,-1.231261
TS9,Hambleton,England,54.469030,-1.168460
TW1,Richmond upon Thames,England,51.450926,-0.327781
TW10,Richmond upon Thames,England,51.451473,-0.302837
TW11,Richmond upon Thames,England,51.426745,-0.332602
TW12,Richmond upon Thames,England,51.421041,-0.369480
TW13,Hounslow,England,51.439150,-0.403423
TW14,Hounslow,England,51.452175,-0.420065
TW15,Spelthorne,England,51.430354,-0.455828
TW16,Spelthorne,England,51.416420,-0.417509
TW17,Spelthorne,England,51.397550,-0.447933
TW18,Spelthorne,England,51.429225,-0.510594
TW19,Spelthorne,England,51.452120,-0.505321
TW2,Richmond upon Thames,England,51.447131,-0.350064
TW20,Runnymede,England,51.428021,-0.548780
TW3,Hounslow,England,51.468614,-0.363337
TW4,Hounslow,England,51.466940,-0.384390
TW5,Hounslow,England,51.480246,-0.381528
TW6_UB11_UB7,Hillingdon,England,51.491246,-0.461379
TW7,Hounslow,England,51.474838,-0.331845
TW8,Hounslow,England,51.486079,-0.308366
TW9,Richmond upon Thames,England,51.467185,-0.296940
UB1,Ealing,England,51.512337,-0.376460
UB10,Hillingdon,England,51.547275,-0.455632
UB18_UB2,Ealing,England,51.500578,-0.382041
UB3,Hillingdon,England,51.505018,-0.421727
UB4,Hillingdon,England,51.523142,-0.408568
UB5,Ealing,England,51.544267,-0.374754
UB6,Ealing,England,51.540246,-0.344355
UB8,Hillingdon,England,51.537013,-0.478866
UB9,Buckinghamshire,England,51.579949,-0.491795
W10,Kensington and Chelsea,England,51.520206,-0.221379
W11,Kensington and Chelsea,England,51.512786,-0.216719
W12,Hammersmith and Fulham,England,51.509369,-0.238215
W13,Ealing,England,51.513088,-0.321426
W14,Hammersmith and Fulham,England,51.495428,-0.211162
W1A_W1B_W1C_W1K_W1S_WC2B_WC2R,Westminster,Other,51.514957,-0.135936
W1D_W1F_W1G_W1J,Westminster,England,51.513469,-0.140448
W1G_W1W,Westminster,Other,51.519102,-0.144594
W1H,Westminster,England,51.517383,-0.159511
W1T,Camden,England,51.520112,-0.136461
W1U,Westminster,England,51.518587,-0.153397
W2,Westminster,England,51.514528,-0.187998
W3,Ealing,England,51.508325,-0.270144
W4,Hounslow,England,51.491408,-0.263614
W5,Ealing,England,51.512220,-0.303987
W6,Hammersmith and Fulham,England,51.492481,-0.231004
W7,Ealing,England,51.509760,-0.335117
W8,Kensington and Chelsea,England,51.500427,-0.195394
W9,Westminster,England,51.523790,-0.194025
WA1,Warrington,England,53.392724,-2.580115
WA10,St. Helens,England,53.453778,-2.752954
WA11,St. Helens,England,53.477140,-2.719488
WA12,St. Helens,England,53.453431,-2.634149
WA13,Warrington,England,53.382481,-2.465809
WA14,Trafford,England,53.387422,-2.356789
WA15,Trafford,England,53.384417,-2.328754
WA16,Cheshire East,England,53.304448,-2.371238
WA1_WA55,Warrington,England,53.392682,-2.581165
WA2,Warrington,England,53.408557,-2.583694
WA3,Wigan,England,53.452071,-2.548262
WA4,Warrington,England,53.370151,-2.581329
WA5,Warrington,England,53.399641,-2.632393
WA6,Cheshire West and Chester,England,53.275586,-2.724151
WA7,Halton,England,53.330318,-2.703466
WA8_WA88,Halton,England,53.372497,-2.740000
WA9,St. Helens,England,53.437048,-2.719905
WC1H,Camden,England,51.524846,-0.126312
WC1N,Camden,England,51.521955,-0.120626
WC1X,Camden,England,51.524361,-0.117284
WD17,Watford,England,51.660809,-0.407003
WD18,Watford,England,51.648049,-0.419138
WD18_WD99,Watford,England,51.648061,-0.419184
WD19,Three Rivers,England,51.632661,-0.393710
WD23,Hertsmere,England,51.645326,-0.366718
WD24,Watford,England,51.669683,-0.401253
WD25,Watford,England,51.681979,-0.392077
WD3,Three Rivers,England,51.643476,-0.482982
WD4,Dacorum,England,51.706467,-0.453891
WD5,Three Rivers,England,51.704445,-0.422618
WD6,Hertsmere,England,51.656707,-0.276446
WD7,Hertsmere,England,51.685836,-0.312674
WF1,Wakefield,England,53.684018,-1.498718
WF10,Wakefield,England,53.723544,-1.350156
WF11,Wakefield,England,53.710677,-1.259182
WF12,Kirklees,England,53.684097,-1.622311
WF13,Kirklees,England,53.691847,-1.644386
WF14,Kirklees,England,53.680490,-1.691034
WF15,Kirklees,England,53.708292,-1.699060
WF16,Kirklees,England,53.709639,-1.668510
WF17,Kirklees,England,53.717726,-1.640480
WF1_WF90,Wakefield,England,53.683982,-1.498731
WF2,Wakefield,England,53.673292,-1.511941
WF3,Leeds,England,53.721571,-1.523852
WF4,Wakefield,England,53.649067,-1.517798
WF5,Wakefield,England,53.680638,-1.576909
WF6,Wakefield,England,53.701466,-1.413740
WF7,Wakefield,England,53.667058,-1.351177
WF8,Wakefield,England,53.687137,-1.301571
WF9,Wakefield,England,53.606318,-1.320899
WN1,Wigan,England,53.551212,-2.629926
WN2,Wigan,England,53.536335,-2.584570
WN3,Wigan,England,53.530714,-2.644786
WN4,Wigan,England,53.497324,-2.643414
WN5,Wigan,England,53.532592,-2.684839
WN6,Wigan,England,53.573253,-2.669370
WN7,Wigan,England,53.497280,-2.518212
WN8,West Lancashire,England,53.552158,-2.771710
WR1,Worcester,England,52.197311,-2.217500
WR10,Wychavon,England,52.117068,-2.067073
WR11,Wychavon,England,52.094898,-1.929937
WR12,Wychavon,England,52.046999,-1.879460
WR13,"Herefordshire, County of",England,52.094701,-2.341710
WR14,Malvern Hills,England,52.113554,-2.322316
WR15,Malvern Hills,England,52.306126,-2.572689
WR1_WR99,Worcester,Other,52.197314,-2.217580
WR2,Worcester,England,52.191538,-2.240213
WR3,Worcester,England,52.216028,-2.210525
WR4,Worcester,England,52.204473,-2.190955
WR5,Worcester,Other,52.179761,-2.200141
WR5_WR99,Worcester,England,52.180241,-2.200678
WR6,Malvern Hills,England,52.229185,-2.361095
WR7,Wychavon,England,52.197367,-2.063763
WR8,Malvern Hills,England,52.090220,-2.202121
WR9,Wychavon,England,52.268310,-2.157285
WS1,Walsall,England,52.581657,-1.979775
WS10,Sandwell,England,52.560292,-2.023366
WS11,Cannock Chase,England,52.688854,-2.016427
WS12,Cannock Chase,England,52.703110,-2.002292
WS13,Lichfield,England,52.691460,-1.817813
WS14,Lichfield,England,52.669820,-1.813295
WS15,Cannock Chase,England,52.758814,-1.920115
WS2,Walsall,England,52.588732,-2.001972
WS3,Walsall,England,52.617032,-1.991550
WS4,Walsall,England,52.604327,-1.961167
WS5,Walsall,England,52.568292,-1.961476
WS6,South Staffordshire,England,52.657326,-2.022638
WS7,Lichfield,England,52.680455,-1.915654
WS8,Walsall,England,52.642910,-1.936761
WS9,Walsall,England,52.609224,-1.919312
WV1,Wolverhampton,England,52.586777,-2.118254
WV10,Wolverhampton,England,52.615950,-2.113867
WV11,Wolverhampton,England,52.609802,-2.071738
WV12,Walsall,England,52.605859,-2.042091
WV13,Walsall,England,52.585646,-2.062692
WV14,Wolverhampton,England,52.558278,-2.077926
WV15,Shropshire,England,52.517694,-2.379869
WV16,Shropshire,England,52.515953,-2.436879
WV2,Wolverhampton,England,52.575800,-2.120088
WV3,Wolverhampton,England,52.580774,-2.148304
WV4,Wolverhampton,England,52.564350,-2.140733
WV5,South Staffordshire,England,52.533189,-2.210651
WV6,Wolverhampton,England,52.597116,-2.175401
WV7,Shropshire,England,52.634284,-2.276837
WV8,South Staffordshire,England,52.622509,-2.182492
WV9,Wolverhampton,England,52.631701,-2.140666
YO10,York,England,53.951331,-1.060756
YO11,Scarborough,England,54.268914,-0.398493
YO12,Scarborough,England,54.274313,-0.422201
YO13,Scarborough,England,54.286954,-0.493550
YO14,Scarborough,England,54.199943,-0.298400
YO15,East Riding of Yorkshire,England,54.091617,-0.182314
YO16,East Riding of Yorkshire,England,54.096105,-0.199177
YO17,Ryedale,England,54.139605,-0.771461
YO18,Ryedale,England,54.255969,-0.767611
YO19,York,England,53.911127,-1.026337
YO1_YO90,York,England,53.958082,-1.071365
YO21,Scarborough,England,54.477900,-0.701875
YO22,Scarborough,England,54.452413,-0.621547
YO23,York,England,53.927809,-1.119351
YO24,York,England,53.947312,-1.114250
YO25,East Riding of Yorkshire,England,54.014292,-0.419594
YO26,York,England,53.974467,-1.167294
YO30,York,England,53.984065,-1.110958
YO31,York,England,53.970321,-1.065894
YO32,York,England,54.009032,-1.060376
YO41,East Riding of Yorkshire,England,53.969439,-0.910516
YO42,East Riding of Yorkshire,England,53.924828,-0.788658
YO51,Harrogate,England,54.087911,-1.388398
YO60_YO62,Ryedale,England,54.194515,-0.980297
YO61,Hambleton,England,54.119695,-1.199180
YO7,Hambleton,England,54.224451,-1.350339
YO8,Selby,England,53.785485,-1.056993
ZE1,Shetland Islands,Scotland,60.151649,-1.168180
ZE2_ZE3,Shetland Islands,Scotland,60.295980,-1.231889